UNITID,iheName,MSI_Flag,studentsRecipientsTotal,eligibleStudentsTotal,studentPortionDisbursedTotal,avgStudentAward,pct_eligible_who_received_aid_by_inst,pct_enrolled_who_received_aid_by_inst,pct_enrolled_who_were_eligible,pctPell,pct_received_who_are_pell,eligiblePellUG,eligibleNonPellUG,eligibleUG,receivedPellUG,receivedNonPellUG,receivedUG,INSTNM,ADDR,CITY,STABBR,ZIP,FIPS,OPEID,SECTOR,ICLEVEL,CONTROL,HLOFFER,UGOFFER,GROFFER,INSTCAT,LANDGRNT,INSTSIZE,LOCALE,POSTSEC,PSEFLAG,PSET4FLG,LONGITUD,LATITUDE,FT_Previous_Cohort_2017,FT_Previous_Cohort_2018,FT_Previous_Cohort_2019,FT_Previous_Cohort_2020,FT_Previous_Cohort_2021,FT_Previous_Cohort_Adj_2017,FT_Previous_Cohort_Adj_2018,FT_Previous_Cohort_Adj_2019,FT_Previous_Cohort_Adj_2020,FT_Previous_Cohort_Adj_2021,FT_Retention_N_2017,FT_Retention_N_2018,FT_Retention_N_2019,FT_Retention_N_2020,FT_Retention_N_2021,FT_Retention_Rate_2017,FT_Retention_Rate_2018,FT_Retention_Rate_2019,FT_Retention_Rate_2020,FT_Retention_Rate_2021,New_Cohort_2017,New_Cohort_2018,New_Cohort_2019,New_Cohort_2020,New_Cohort_2021,New_UG_2017,New_UG_2018,New_UG_2019,New_UG_2020,New_UG_2021,PT_Previous_Cohort_2017,PT_Previous_Cohort_2018,PT_Previous_Cohort_2019,PT_Previous_Cohort_2020,PT_Previous_Cohort_2021,PT_Previous_Cohort_Adj_2017,PT_Previous_Cohort_Adj_2018,PT_Previous_Cohort_Adj_2019,PT_Previous_Cohort_Adj_2020,PT_Previous_Cohort_Adj_2021,PT_Retention_N_2017,PT_Retention_N_2018,PT_Retention_N_2019,PT_Retention_N_2020,PT_Retention_N_2021,PT_Retention_Rate_2017,PT_Retention_Rate_2018,PT_Retention_Rate_2019,PT_Retention_Rate_2020,PT_Retention_Rate_2021
228246,SOUTHERN METHODIST UNIVERSITY,0,1654,1654,2299130,1390.042321644498,100,12.896686159844052,12.896686159844052,0.094,79.62529274004683,680,174,854,680,174,854,Southern Methodist University,6425 Boaz St,Dallas,TX,75275-0221,48,00361300,2,1,2,9,1,1,2,2,4,21,1,1,1,-96.783365,32.843612,1521,1421,1526,1541,1529,1521,1421,1526,1541,1529,1384,1287,1396,1392,1385,91,91,91,90,91,1421,1526,1541,1529,1568,1715,1795,1852,1847,1862,1,2,4,3,2,1,2,4,3,2,0,2,4,2,2,0,100,100,67,100
441760,LAMAR INSTITUTE OF TECHNOLOGY,0,1078,2867,637200,591.0946196660483,37.60027903732124,27.648114901256733,73.53167478840729,0.473,73.28385899814471,1722,1145,2867,790,288,1078,Lamar Institute of Technology,855 E Lavaca,Beaumont,TX,77705,48,03627300,4,2,1,3,1,2,4,2,2,12,1,1,1,-94.077126,30.047885,434,536,506,570,475,434,535,501,569,475,258,324,295,347,258,59,61,59,61,54,515,506,570,475,364,1068,1286,1119,1857,2518,251,191,187,178,319,251,191,187,178,319,119,94,106,82,148,47,49,57,46,46
443298,TREND BARBER COLLEGE,0,94,94,94000,1000,100,71.21212121212122,71.21212121212122,1,NA,NA,NA,NA,NA,NA,NA,Trend Barber College,8250 W Bellfort,Houston,TX,77071-2202,48,03714300,9,3,3,2,1,2,6,2,1,11,1,1,1,-95.522116,29.65621,2,13,5,6,4,2,13,5,6,4,2,11,5,6,4,100,85,100,100,100,NA,NA,NA,NA,NA,NA,NA,NA,NA,NA,NA,NA,NA,NA,NA,NA,NA,NA,NA,NA,NA,NA,NA,NA,NA,NA,NA,NA,NA,NA
443021,DALLAS BARBER AND STYLIST COLLEGE,0,50,63,86300,1726,79.36507936507937,25.906735751295333,32.64248704663213,1,100,63,0,63,50,0,50,Dallas Barber & Stylist College,9357 Forest Lane,Dallas,TX,75243,48,03682400,9,3,3,2,1,2,6,2,1,11,1,1,1,-96.737009,32.909891,102,103,90,94,56,102,103,90,94,55,62,76,80,82,38,61,74,89,87,69,NA,NA,NA,NA,NA,NA,NA,NA,NA,NA,NA,NA,NA,NA,NA,NA,NA,NA,NA,NA,NA,NA,NA,NA,NA,NA,NA,NA,NA,NA
451556,"QUIKSTUDY LEARNING CENTER, INC.",0,1057,1057,2015256,1906.580889309366,100,37.76348695962844,37.76348695962844,0.846,100,1057,0,1057,1057,0,1057,Southwest University at El Paso,1414 Geronimo,El Paso,TX,79925,48,04131700,3,1,3,5,1,2,3,2,2,11,1,1,1,-106.413158,31.788346,112,133,144,121,99,112,133,144,121,99,85,83,120,105,88,76,62,83,87,89,559,752,213,242,402,559,752,940,548,891,NA,NA,NA,NA,NA,NA,NA,NA,NA,NA,NA,NA,NA,NA,NA,NA,NA,NA,NA,NA
461740,BUCKNER BARBER SCHOOL,0,21,21,18591.93,885.33,100,80.76923076923077,80.76923076923077,0.854,NA,NA,NA,21,NA,NA,21,Buckner Barber School,"1515 South Buckner Boulevard, Suite 147",Dallas,TX,75217-1775,48,04177900,9,3,3,2,1,2,6,2,1,11,1,1,1,-96.684709,32.737175,11,14,13,13,17,11,14,13,13,17,9,9,9,10,15,82,64,69,77,88,NA,NA,NA,NA,NA,NA,NA,NA,NA,NA,NA,NA,NA,NA,NA,NA,NA,NA,NA,NA,NA,NA,NA,NA,NA,NA,NA,NA,NA,NA
228325,SOUTHWESTERN ASSEMBLIES OF GOD UNIVERSITY,0,782,782,1275093,1630.5537084398975,100,30.57075840500391,30.57075840500391,0.522,57.8005115089514,452,330,782,452,330,782,Southwestern Assemblies of God University,1200 Sycamore,Waxahachie,TX,75165,48,00361600,2,1,2,9,1,1,2,2,2,21,1,1,1,-96.853492,32.40443,194,188,172,158,169,194,188,172,158,169,139,131,116,113,114,72,70,67,72,67,320,296,311,314,281,559,549,546,513,465,3,7,3,3,3,3,7,3,3,3,3,5,1,1,3,100,71,33,33,100
223232,BAYLOR UNIVERSITY,0,2697,14674,5394000,2000,18.379446640316203,14.22768516564676,77.41084617007807,0.194,57.10048201705599,2213,11066,13279,1540,1157,2697,Baylor University,NA,Waco,TX,76798,48,00354500,2,1,2,9,1,1,2,2,4,12,1,1,1,-97.121041,31.546872,3496,3316,3364,3303,3721,3496,3316,3364,3303,3721,3132,2946,2972,2994,3288,90,89,88,91,88,3316,3364,3303,3721,4258,3703,3736,3810,4152,4653,7,4,2,4,10,7,4,2,4,10,4,2,2,4,8,57,50,100,100,80
491996,COSMETOLOGY SCHOOLS NORTH AUSTIN LLC,0,36,41,27000,750,87.8048780487805,52.94117647058824,60.29411764705882,NA,52.77777777777778,24,17,41,19,17,36,The Salon Professional Academy-Georgetown,901 South IH 35,Georgetown,TX,78626-5470,48,04276700,9,3,3,2,1,2,6,2,1,13,1,1,1,-97.688068,30.635778,NA,8,13,29,10,NA,8,13,29,10,NA,7,12,26,8,NA,88,92,90,80,NA,NA,NA,NA,NA,NA,NA,NA,NA,NA,NA,0,NA,NA,NA,NA,0,NA,NA,NA,NA,0,NA,NA,NA,NA,NA,NA,NA,NA
229267,TRINITY UNIVERSITY,0,1206,1532,912705.25,756.8036898839138,78.72062663185379,43.47512617159337,55.22710886806056,0.172,33.27321911632101,369,1066,1435,369,740,1109,Trinity University,One Trinity Place,San Antonio,TX,78212-7200,48,00364700,2,1,2,7,1,1,2,2,2,11,1,1,1,-98.48186,29.462682,662,642,690,646,634,660,642,690,644,634,586,582,637,572,582,89,91,92,89,92,642,690,646,634,663,668,718,682,666,688,0,NA,NA,NA,NA,0,NA,NA,NA,NA,0,NA,NA,NA,NA,NA,NA,NA,NA,NA
488299,MISSION BEAUTY INSTITUTE LLC,0,36,36,30534,848.1666666666666,100,72,72,0.11,100,36,0,36,36,0,36,Mission Beauty Institute,1123 East 9th Street,Mission,TX,78572-4404,48,04250800,9,3,3,2,1,2,6,2,1,13,1,1,1,-98.31205,26.213855,4,4,1,7,3,3,3,1,7,3,1,3,1,7,3,33,100,100,100,100,NA,NA,NA,NA,NA,NA,NA,NA,NA,NA,16,18,9,10,6,16,18,9,10,6,10,4,3,4,2,63,22,33,40,33
429094,"AOMA ACADEMY, LP DBA AOMA GRADUATE SCHOOL OF INTEGRATIVE MED",0,33,127,22114,670.1212121212121,25.984251968503933,15.27777777777778,58.79629629629629,NA,NA,0,0,0,0,0,0,AOMA Graduate School of Integrative Medicine,4701 Westgate Blvd,Austin,TX,78745,48,03156400,3,1,3,9,2,1,1,2,1,11,1,1,1,-97.800643,30.228551,NA,NA,NA,NA,NA,NA,NA,NA,NA,NA,NA,NA,NA,NA,NA,NA,NA,NA,NA,NA,NA,NA,NA,NA,NA,NA,NA,NA,NA,NA,NA,NA,NA,NA,NA,NA,NA,NA,NA,NA,NA,NA,NA,NA,NA,NA,NA,NA,NA,NA
485810,NIKIA THOMPSON,0,19,19,616.34,32.438947368421054,100,86.36363636363636,86.36363636363636,0.769,100,19,0,19,19,0,19,K & G 5 Star Barber College,409 Crimson Coast Dr,League City,TX,77573,48,04236900,9,3,3,2,1,2,6,2,1,22,1,1,1,-95.088354,29.443105,6,17,19,12,NA,6,17,19,12,NA,4,13,12,8,NA,67,76,63,67,NA,NA,NA,NA,NA,NA,NA,NA,NA,NA,NA,NA,NA,NA,NA,NA,NA,NA,NA,NA,NA,NA,NA,NA,NA,NA,NA,NA,NA,NA,NA
249238,"PMHS, LLC",0,449,449,647152.6799999999,1441.32,100,62.447844228094574,62.447844228094574,0.724,77.06013363028953,346,103,449,346,103,449,Paul Mitchell the School-Houston,"10516 Katy Fwy, Suite A",Houston,TX,77043,48,02357700,9,3,3,2,1,2,6,2,1,11,1,1,1,-95.559723,29.785868,36,38,68,27,35,36,38,68,27,35,27,31,63,15,31,75,82,93,56,89,NA,NA,NA,NA,NA,NA,NA,NA,NA,NA,8,4,8,18,14,8,4,8,18,14,6,3,6,17,13,75,75,75,94,93
226231,LETOURNEAU UNIVERSITY,0,622,819,1050372,1688.7009646302251,75.94627594627595,13.451557093425606,17.711937716262977,0.336,35.048231511254016,310,509,819,218,404,622,LeTourneau University,2100 S Mobberly Ave,Longview,TX,75602,48,00358400,2,1,2,7,1,1,2,2,2,13,1,1,1,-94.726394,32.46632,259,288,307,337,335,259,288,307,337,334,212,226,234,273,256,82,78,76,81,77,288,309,339,335,316,1098,1227,1236,1265,1366,18,28,25,20,20,18,28,25,20,20,5,14,16,7,12,28,50,64,35,60
227401,PARIS JUNIOR COLLEGE,0,1846,1855,1111950,602.3564463705309,99.51482479784369,25.624652970571905,25.749583564686283,0.632,83.47778981581799,1543,312,1855,1541,305,1846,Paris Junior College,2400 Clarksville St,Paris,TX,75460,48,00360100,4,2,1,3,1,2,4,2,2,33,1,1,1,-95.529177,33.650929,696,754,647,637,557,696,754,647,637,557,370,417,384,392,316,53,55,59,62,57,754,647,637,557,531,2023,2062,2016,1832,956,199,239,173,178,192,199,239,173,178,191,68,76,81,68,67,34,32,47,38,35
225399,HOUSTON BAPTIST UNIVERSITY,1,1315,2853,1308037.12,994.7050342205324,46.09183315807922,30.064014631915864,65.22633744855966,0.476,78.0399274047187,1059,1093,2152,860,242,1102,Houston Baptist University,7502 Fondren Rd,Houston,TX,77074-3298,48,00357600,2,1,2,9,1,1,2,2,2,11,1,1,1,-95.515954,29.693819,576,510,511,693,637,576,510,511,693,637,413,351,361,494,432,72,69,71,71,68,510,511,693,637,758,759,802,998,928,1045,1,9,20,34,31,1,9,20,34,31,0,1,10,11,8,0,11,50,32,26
494977,AMERICAN MEDICAL INSTITUTE INC,0,0,0,0,NA,NA,NA,NA,NA,NA,0,0,0,0,0,0,American Medical Institute Inc.,6902 Cook Rd,Houston,TX,77099,48,04286600,8,3,2,1,1,2,6,2,1,11,1,1,1,-95.596735,29.702418,NA,NA,NA,NA,NA,NA,NA,NA,NA,NA,NA,NA,NA,NA,NA,NA,NA,NA,NA,NA,NA,NA,NA,NA,NA,NA,NA,NA,NA,NA,NA,NA,NA,NA,NA,NA,NA,NA,NA,NA,NA,NA,NA,NA,NA,NA,NA,NA,NA,NA
392257,EMPOWERMENT SCHOOLS - HEALTHCARE LIMITED,0,1859,4307,3648776.12,1962.7628402366863,43.16229394009752,68.07030391797876,157.70779934090078,0.698,86.60570199031737,3703,604,4307,1610,249,1859,The College of Health Care Professions-Northwest,240 Northwest Mall,Houston,TX,77092,48,03128100,3,1,3,5,1,2,3,2,2,11,1,1,1,-95.454298,29.799602,46,58,53,27,0,46,58,53,27,0,39,47,46,20,0,85,81,87,74,NA,NA,NA,NA,NA,NA,NA,NA,NA,NA,NA,NA,NA,NA,NA,NA,NA,NA,NA,NA,NA,NA,NA,NA,NA,NA,NA,NA,NA,NA,NA
458052,"HONG LIEN, INC",0,11,15,32109,2919,73.33333333333333,18.96551724137931,25.86206896551724,0.865,NA,NA,0,15,NA,0,11,Advanced Beauty College,3959 N. Beltline Rd.,Irving,TX,75038,48,04155800,9,3,3,2,1,2,6,2,1,12,1,1,1,-96.9927,32.859493,4,9,3,0,NA,4,9,3,0,NA,4,9,2,0,NA,100,100,67,NA,NA,NA,NA,NA,NA,NA,NA,NA,NA,NA,NA,6,11,3,0,NA,6,11,3,0,NA,5,10,3,0,NA,83,91,100,NA,NA
449782,"CHAMPION BEAUTY COLLEGE, INC.",0,0,0,0,NA,NA,0,0,0.772,NA,0,0,0,0,0,0,Champion Beauty College,3920 FM 1960 West #210,Houston,TX,77068,48,04117900,9,3,3,2,1,2,6,2,1,21,1,1,1,-95.489161,29.99352,10,18,13,16,28,10,18,13,16,28,8,15,11,12,20,80,83,85,75,71,NA,NA,NA,NA,NA,NA,NA,NA,NA,NA,10,29,22,24,19,10,29,22,24,19,6,20,15,17,14,60,69,68,71,74
455974,SILVA & LOPEZ ASS INC.  DBA SOUTH TEXAS TRAINING CENTER,0,258,301,126070,488.6434108527132,85.71428571428571,67.5392670157068,78.79581151832461,0.839,100,301,0,301,258,0,258,South Texas Training Center,1901 W Hwy 77,San Benito,TX,78586,48,04146800,9,3,3,1,1,2,6,2,1,22,1,1,1,-97.652989,26.156604,NA,NA,NA,NA,NA,NA,NA,NA,NA,NA,NA,NA,NA,NA,NA,NA,NA,NA,NA,NA,NA,NA,NA,NA,NA,NA,NA,NA,NA,NA,NA,NA,NA,NA,NA,NA,NA,NA,NA,NA,NA,NA,NA,NA,NA,NA,NA,NA,NA,NA
439507,QUEST COLLEGE,0,301,310,246043.42,817.4200000000001,97.09677419354838,108.66425992779784,111.91335740072202,0.918,99.0033222591362,307,NA,310,298,NA,301,Quest College,5430 Fredericksburg Rd Ste 310,San Antonio,TX,78229,48,03400300,6,2,3,3,1,2,4,2,1,11,1,1,1,-98.563006,29.507453,121,35,53,83,346,121,35,53,83,346,72,20,32,56,222,60,57,60,67,64,NA,NA,NA,NA,NA,NA,NA,NA,NA,NA,NA,NA,NA,NA,NA,NA,NA,NA,NA,NA,NA,NA,NA,NA,NA,NA,NA,NA,NA,NA
228723,TEXAS A&M UNIVERSITY,1,16123,78680,19908221,1234.7715065434472,20.491865785460092,22.005814350253186,107.3880464602072,0.218,30.034472852628557,17762,50816,68578,4182,9742,13924,Texas A & M University-College Station,"JKW Administration Building, Suite 200",College Station,TX,77843-1248,48,00363200,1,1,1,9,1,1,2,1,5,12,1,1,1,-96.336475,30.618726,8955,10099,10049,9618,10039,8955,10099,10049,9618,10039,8208,9294,9369,9078,9318,92,92,93,94,93,10099,10049,9618,10039,11153,14858,14239,14151,15160,15859,1190,1540,1082,995,1071,1190,1540,1082,995,1071,1088,1402,975,926,992,91,91,90,93,93
222877,ARLINGTON BAPTIST UNIVERSITY,0,68,97,57000,838.2352941176471,70.10309278350515,36.95652173913043,52.71739130434783,0.458,NA,58,NA,97,NA,23,68,Arlington Baptist University,3001 W Division,Arlington,TX,76012-3425,48,02081400,2,1,2,7,1,1,2,2,1,11,1,1,1,-97.156024,32.739489,25,21,37,38,54,25,21,37,38,54,10,7,19,22,19,40,33,51,58,35,21,39,38,54,86,42,54,59,75,127,0,0,0,0,NA,0,0,0,0,NA,0,0,0,0,NA,NA,NA,NA,NA,NA
225502,UNIVERSITY OF HOUSTON-VICTORIA,1,2057,3660,1116503,542.7822070977152,56.20218579234973,37.639524245196704,66.97163769441903,0.669,56.85172171468727,1618,1071,2689,809,614,1423,University of Houston-Victoria,3007 N. Ben Wilson,Victoria,TX,77901,48,01323100,1,1,1,7,1,1,2,2,2,13,1,1,1,-96.976334,28.816248,313,288,305,300,240,313,288,305,300,240,175,162,186,197,142,56,56,61,66,59,288,305,307,240,129,851,824,894,1017,619,6,8,53,59,26,6,8,53,59,26,2,2,37,38,6,33,25,70,64,23
485874,SALON BOUTIQUE ACADEMY,0,37,69,49437,1336.1351351351352,53.62318840579711,19.3717277486911,36.12565445026178,0.67,45.94594594594595,36,33,69,17,20,37,Salon Boutique Academy,4135 Belt Line Road Suite 102,Addison,TX,75001-4399,48,04249300,9,3,3,2,1,2,6,2,1,21,1,1,1,-96.841676,32.954908,15,14,36,39,22,15,14,36,39,22,11,13,34,36,20,73,93,94,92,91,NA,NA,NA,NA,NA,NA,NA,NA,NA,NA,21,27,37,15,25,21,27,37,15,25,16,27,35,12,19,76,100,95,80,76
224545,TEXAS A&M UNIVERSITY - TEXARKANA,0,565,1867,762500.5,1349.558407079646,30.262453133369043,22.46520874751491,74.23459244532803,0.457,75.10204081632654,1133,531,1664,368,122,490,Texas A&M University-Texarkana,7101 University Avenue,Texarkana,TX,75503,48,03170300,1,1,1,9,1,1,2,2,2,41,1,1,1,-94.103617,33.490482,199,199,230,207,274,199,199,230,207,274,113,113,135,133,138,57,57,59,64,50,218,230,207,274,225,507,549,524,577,558,6,5,1,5,12,6,5,1,5,12,2,2,0,3,5,33,40,0,60,42
485926,GA NAILS BEAUTY SCHOOL LLC,0,54,93,55734.78,1032.1255555555556,58.06451612903226,24.65753424657534,42.465753424657535,NA,100,93,0,93,54,0,54,GA Beauty & Barber School,3301 North Ware Road Suite A,McAllen,TX,78501-3309,48,04275600,9,3,3,2,1,2,6,2,1,12,1,1,1,-98.257166,26.237585,NA,0,15,48,42,NA,0,15,48,42,NA,0,7,28,30,NA,NA,47,58,71,NA,NA,NA,NA,NA,NA,NA,NA,NA,NA,NA,0,6,0,1,NA,0,6,0,1,NA,0,3,0,1,NA,NA,50,NA,100
475608,CRISWELL COLLEGE,0,151,151,78406,519.2450331125827,100,55.51470588235294,55.51470588235294,0.367,50,66,66,132,66,66,132,Criswell College,4010 Gaston Avenue,Dallas,TX,75246-1537,48,04121800,2,1,2,7,1,1,2,2,1,11,1,1,1,-96.77669,32.793513,12,15,8,21,16,12,15,8,21,16,11,11,5,17,11,92,73,63,81,69,15,8,21,16,11,41,32,50,33,22,3,2,5,5,4,3,2,5,5,4,3,0,3,1,3,100,0,60,20,75
224642,EL PASO COMMUNITY COLLEGE DISTRICT,1,10402,24844,15110400,1452.6437223610844,41.86926420866205,27.164943069048363,64.88039277133605,0.778,85.05095174005,19996,4848,24844,8847,1555,10402,El Paso Community College,9050 Viscount Blvd,El Paso,TX,79925-6507,48,01038700,4,2,1,3,1,2,4,2,5,11,1,1,1,-106.373616,31.773359,2576,2572,2916,2915,2138,2576,2572,2915,2914,2138,1705,1685,1798,1211,1290,66,66,62,42,60,2572,2909,3092,2138,2309,5982,6562,6328,3893,4843,2220,1984,1968,1796,1018,2220,1984,1968,1796,1018,1148,967,989,800,483,52,49,50,45,47
485360,THE VOCATIONAL NURSING INSTITUTE INC.,0,27,27,8867,328.4074074074074,100,67.5,67.5,NA,85.18518518518519,23,4,27,23,4,27,The Vocational Nursing Institute Inc,11201 Steeple Park Drive,Houston,TX,77065,48,04239700,5,2,2,4,1,2,6,2,1,11,1,1,1,-95.587085,29.903883,1,1,1,1,2,1,1,1,1,2,1,1,1,1,2,100,100,100,100,100,NA,NA,NA,NA,NA,NA,NA,NA,NA,NA,NA,NA,NA,NA,NA,NA,NA,NA,NA,NA,NA,NA,NA,NA,NA,NA,NA,NA,NA,NA
229522,VICTORIA BEAUTY COLLEGE INC.,0,76,76,45354.56,596.7705263157894,100,55.47445255474452,55.47445255474452,1,88.1578947368421,67,9,76,67,9,76,Victoria Beauty College Inc,1508 N Laurent,Victoria,TX,77901-6233,48,01202000,9,3,3,2,1,2,6,2,1,13,1,1,1,-96.990854,28.807928,24,13,9,13,19,24,13,9,13,19,23,8,5,7,13,96,62,56,54,68,NA,NA,NA,NA,NA,NA,NA,NA,NA,NA,46,8,1,2,2,46,8,1,2,2,22,6,1,1,1,48,75,100,50,50
225575,HUSTON-TILLOTSON UNIVERSITY,1,920,920,786641.11,855.0446847826087,100,80.84358523725835,80.84358523725835,0.746,NA,749,166,NA,749,166,NA,Huston-Tillotson University,900 Chicon St,Austin,TX,78702-2795,48,00357700,2,1,2,7,1,1,2,2,2,11,1,1,1,-97.721691,30.264667,152,182,218,202,166,152,183,218,202,166,78,117,121,110,89,51,64,56,54,54,182,218,202,166,147,309,322,326,273,260,0,0,5,2,3,0,0,5,2,3,0,0,3,1,0,NA,NA,60,50,0
495244,PEARLANDS INNOVATIVE SCHOOL OF BEAUTY,0,10,10,3784.6,378.46,100,NA,NA,NA,NA,NA,0,NA,NA,0,NA,Pearlands Innovative School of Beauty,9330 Broadway Street,Pearland,TX,77584-7891,48,04288900,9,3,3,2,1,2,6,2,1,21,1,1,1,-95.365954,29.55683,NA,NA,NA,11,20,NA,NA,NA,11,20,NA,NA,NA,11,20,NA,NA,NA,100,100,NA,NA,NA,NA,NA,NA,NA,NA,NA,NA,NA,NA,NA,0,10,NA,NA,NA,0,10,NA,NA,NA,0,10,NA,NA,NA,NA,100
455354,AVEDA INSTITUTE CORPUS CHRISTI,0,271,271,186751.52,689.12,100,60.08869179600887,60.08869179600887,0.441,66.78966789667896,181,90,271,181,90,271,Aveda Arts & Sciences Institute-San Antonio,21003 Encino Commons Ste 121,San Antonio,TX,78259-2792,48,04142300,9,3,3,2,1,2,6,2,1,11,1,1,1,-98.452126,29.637354,42,43,37,55,27,42,43,37,55,27,32,32,35,50,20,76,74,95,91,74,NA,NA,NA,NA,NA,NA,NA,NA,NA,NA,NA,NA,NA,NA,NA,NA,NA,NA,NA,NA,NA,NA,NA,NA,NA,NA,NA,NA,NA,NA
225511,UNIVERSITY OF HOUSTON,1,26945,26945,18435291.21,684.1822679532381,100,51.81830419815766,51.81830419815766,0.402,60.011992975542896,14011,9336,23347,14011,9336,23347,University of Houston,212 E. Cullen Building,Houston,TX,77204-2018,48,00365200,1,1,1,9,1,1,2,2,5,11,1,1,1,-95.343537,29.720393,4263,4745,4919,5382,4717,4263,4745,4919,5382,4717,3618,4027,4173,4626,4016,85,85,85,86,85,4745,4919,5382,4717,4998,10225,10526,10318,10033,10176,200,214,279,298,508,200,214,279,298,508,121,142,190,204,297,61,66,68,68,58
490522,"ALLGOOD BEAUTY INSTITUTE, LLC",0,6,6,7920,1320,100,25,25,NA,NA,6,0,NA,6,0,NA,Allgood Beauty Institute,9741 Preston Road Suite 106,Frisco,TX,75033-4112,48,04267200,9,3,3,2,1,2,6,2,1,21,1,1,1,-96.804131,33.15731,6,0,8,13,5,6,0,8,13,5,6,0,4,1,5,100,NA,50,8,100,NA,NA,NA,NA,NA,NA,NA,NA,NA,NA,0,NA,NA,0,0,0,NA,NA,0,0,0,NA,NA,0,0,NA,NA,NA,NA,NA
226860,"WILLIAM EDGE INSTITUTE, LLC",0,27,27,11021.78,408.2140740740741,100,46.55172413793103,46.55172413793103,0.484,55.55555555555556,15,12,27,15,12,27,William Edge Institute,"651 North Business IH 35, Suite 330",New Braunfels,TX,78130-8216,48,00849800,9,3,3,2,1,2,6,2,1,13,1,1,1,-98.100952,29.698282,14,7,17,13,15,14,7,17,13,15,11,5,16,11,14,79,71,94,85,93,NA,NA,NA,NA,NA,NA,NA,NA,NA,NA,NA,NA,NA,NA,NA,NA,NA,NA,NA,NA,NA,NA,NA,NA,NA,NA,NA,NA,NA,NA
224828,"FORT WORTH BEAUTY SCHOOL, INC.",0,55,55,92287,1677.9454545454546,100,47.41379310344828,47.41379310344828,0.682,NA,NA,NA,20,NA,NA,20,Fort Worth Beauty School,4760 Hwy 377 South,Benbrook,TX,76116,48,02306700,9,3,3,2,1,2,6,2,1,11,1,1,1,-97.420695,32.82338,8,7,13,10,9,8,7,13,10,9,2,3,7,7,6,25,43,54,70,67,NA,NA,NA,NA,NA,NA,NA,NA,NA,NA,11,8,4,17,7,11,8,4,17,7,7,6,3,12,3,64,75,75,71,43
225432,UNIVERSITY OF HOUSTON - DOWNTOWN,1,5935,12683,4887155,823.44650379107,46.79492233698652,33.565207555706365,71.72831127700486,0.642,65.32242723987065,7647,3676,11323,3434,1823,5257,University of Houston-Downtown,1 Main Street,Houston,TX,77002-1014,48,00361200,1,1,1,7,1,1,2,2,4,11,1,1,1,-95.359338,29.7661,829,856,973,1234,975,829,855,973,1234,975,599,611,713,831,625,72,71,73,67,64,856,973,1234,975,1137,2890,3264,3765,4128,3424,110,111,95,233,516,110,111,95,233,516,59,67,46,129,239,54,60,48,55,46
225414,UNIVERSITY OF HOUSTON-CLEAR LAKE,1,3485,5216,2892672,830.0350071736011,66.81365030674846,31.704876273653564,47.45269286754003,0.373,76.28865979381443,2901,1247,4148,2146,667,2813,University of Houston-Clear Lake,2700 Bay Area Blvd,Houston,TX,77058-1002,48,01171100,1,1,1,9,1,1,2,2,3,21,1,1,1,-95.098129,29.582523,227,234,246,265,282,227,234,246,265,282,168,173,198,204,208,74,74,80,77,74,234,246,265,282,263,1465,1670,1599,1492,1664,39,46,59,71,81,39,46,59,71,81,20,32,39,42,48,51,70,66,59,59
223852,CHARLES & SUE'S SCHOOL OF HAIR DESIGN,0,37,37,54764,1480.108108108108,100,94.87179487179486,94.87179487179486,0.978,64.86486486486487,24,13,37,24,13,37,Charles and Sues School of Hair Design,1711 Briarcrest Dr,Bryan,TX,77802,48,01293000,9,3,3,2,1,2,6,2,1,13,1,1,1,-96.340102,30.6528,7,16,8,8,11,7,16,8,8,11,6,14,8,7,10,86,88,100,88,91,NA,NA,NA,NA,NA,NA,NA,NA,NA,NA,NA,NA,NA,NA,NA,NA,NA,NA,NA,NA,NA,NA,NA,NA,NA,NA,NA,NA,NA,NA
227182,LONE STAR COLLEGE SYSTEM,1,18065,18065,14411628,797.7651812897868,100,16.461336589455268,16.461336589455268,0.429,93.7669526709106,16939,1126,18065,16939,1126,18065,Lone Star College System,5000 Research Forest Drive,The Woodlands,TX,77381-4399,48,01114500,1,1,1,5,1,2,3,2,5,13,1,1,1,-95.488103,30.18737,6391,6486,6344,6919,0,6391,6486,6344,6919,0,4273,3501,3337,3337,0,67,54,53,48,NA,6486,6344,6919,6209,6630,25310,29998,26198,22633,24143,6727,5888,6200,5377,0,6727,5888,6200,5377,0,3533,2440,2822,2822,0,53,41,46,52,NA
229115,TEXAS TECH UNIVERSITY,1,14789,22849,13713719,927.2918385286362,64.72493325747297,35.936626734381456,55.52207615483683,0.246,35.10481251845291,7781,12093,19874,4756,8792,13548,Texas Tech University,Broadway and University Avenue,Lubbock,TX,79409-5005,48,00364400,1,1,1,9,1,1,2,2,5,11,1,1,1,-101.874783,33.583448,4690,5784,6083,6033,6357,4688,5783,6079,6033,6354,3945,4913,5274,5278,5407,84,85,87,87,85,5784,6083,6048,6357,6490,8790,9731,9505,9976,9647,72,99,88,91,147,71,99,88,91,147,45,60,49,59,84,63,61,56,65,57
227429,PAUL QINN COLLEGE,1,429,429,581860,1356.3170163170164,100,55.42635658914728,55.42635658914728,0.852,82.98368298368298,356,73,429,356,73,429,Paul Quinn College,3837 Simpson Stuart Rd,Dallas,TX,75241,48,00360200,2,1,2,5,1,2,2,2,1,11,1,1,1,-96.755778,32.678837,103,105,122,146,54,103,105,122,146,54,64,71,70,82,38,62,68,57,56,70,148,134,146,60,57,223,178,209,93,86,2,2,6,1,1,2,2,6,1,1,2,2,2,1,1,100,100,33,100,100
488110,"NATURAL IMAGES BEAUTY SCHOOL LLC",0,27,27,62350.34,2309.271851851852,100,32.53012048192771,32.53012048192771,0.776,NA,NA,NA,27,0,0,0,Natural Images Beauty College,236 Old Angleton Road,Clute,TX,77531-3603,48,04245800,9,3,3,2,1,2,6,2,1,23,1,1,1,-95.400805,29.026275,9,7,9,12,19,9,7,9,12,19,3,3,5,7,12,33,43,56,58,63,NA,NA,NA,NA,NA,NA,NA,NA,NA,NA,NA,2,8,9,3,NA,2,8,9,3,NA,2,5,4,1,NA,100,63,44,33
413945,ROFFLER ENTERPRISES OF GEORGIA INC,0,69,69,73987,1072.2753623188405,100,60,60,0.707,76.81159420289855,53,16,69,53,16,69,Toni & Guy Hairdressing Academy-Atlanta,"1355 Roswell Rd, Suite 150",Marietta,GA,30062,13,02321400,9,3,3,2,1,2,6,2,1,13,1,1,1,-84.51407,33.952158,23,12,16,16,7,23,12,16,16,7,18,8,12,9,6,78,67,75,56,86,NA,NA,NA,NA,NA,NA,NA,NA,NA,NA,NA,NA,NA,NA,NA,NA,NA,NA,NA,NA,NA,NA,NA,NA,NA,NA,NA,NA,NA,NA
225885,JARVIS CHRISTIAN COLLEGE,1,598,611,1979520,3310.2341137123744,97.87234042553192,53.87387387387387,55.04504504504505,0.956,NA,NA,NA,611,NA,NA,598,Jarvis Christian College,"PR 7631, Hwy 80 E",Hawkins,TX,75765-1470,48,00363700,2,1,2,5,1,2,2,2,1,42,1,1,1,-95.181513,32.587942,269,257,349,88,103,269,257,349,88,103,112,147,164,47,38,42,57,47,53,37,258,349,202,103,118,370,415,291,149,178,1,NA,0,NA,1,1,NA,0,NA,1,1,NA,0,NA,1,100,NA,NA,NA,100
229063,TEXAS SOUTHRN UNIVERSITY,1,5897,8199,10024900,1700,71.92340529332846,53.71163129611076,74.67893250751435,0.777,82.07605344295992,5641,1299,6940,3993,872,4865,Texas Southern University,3100 Cleburne St,Houston,TX,77004,48,00364200,1,1,1,9,1,1,2,2,3,11,1,1,1,-95.361113,29.721046,1219,1755,1503,1370,638,1219,1755,1503,1370,638,700,948,792,694,435,57,54,53,51,68,1755,1503,1370,638,1272,3042,2349,2175,1052,1774,41,220,104,105,86,41,220,104,105,86,12,35,15,14,17,29,16,14,13,20
227757,WILLIAM MARSH RICE UNIVERSITY,0,2774,2774,1858100,669.8269646719539,100,36.78069477592151,36.78069477592151,0.149,38.81987577639752,625,985,1610,625,985,1610,Rice University,6100 S Main St,Houston,TX,77005-1827,48,00360400,2,1,2,9,1,1,2,2,3,11,1,1,1,-95.402035,29.717897,977,1046,956,961,993,975,1044,954,959,991,942,1017,932,927,962,97,97,98,97,97,1046,956,961,993,1217,1105,1024,1014,1071,1253,NA,NA,NA,NA,NA,NA,NA,NA,NA,NA,NA,NA,NA,NA,NA,NA,NA,NA,NA,NA
227298,THE OCEAN CORPORATION,0,120,154,101502.03,845.85025,77.92207792207793,39.6039603960396,50.82508250825083,0.589,74.16666666666667,115,39,154,89,31,120,Ocean Corporation,10840 Rockley Rd,Houston,TX,77099,48,02600200,9,3,3,1,1,2,6,2,1,11,1,1,1,-95.57034,29.665467,NA,NA,NA,NA,NA,NA,NA,NA,NA,NA,NA,NA,NA,NA,NA,NA,NA,NA,NA,NA,NA,NA,NA,NA,NA,NA,NA,NA,NA,NA,NA,NA,NA,NA,NA,NA,NA,NA,NA,NA,NA,NA,NA,NA,NA,NA,NA,NA,NA,NA
227863,UNIVERSITY OF SAINT THOMAS,1,556,2974,1984472,3569.1942446043167,18.695359784801617,14.29305912596401,76.45244215938304,0.448,72.61904761904762,1115,969,2084,305,115,420,University of St Thomas,3800 Montrose Blvd,Houston,TX,77006-4696,48,00365400,2,1,2,9,1,1,2,2,2,11,1,1,1,-95.393102,29.736438,272,290,350,336,393,272,290,350,336,393,231,239,294,280,288,85,82,84,83,73,290,350,336,393,436,535,614,650,734,791,5,5,5,7,8,5,5,5,7,8,2,2,3,6,2,40,40,60,86,25
223223,BAYLOR COLLEGE OF MEDICINE,0,415,475,250174.55,602.8302409638554,87.36842105263159,25.18203883495146,28.822815533980584,NA,NA,0,0,0,0,0,0,Baylor College of Medicine,One Baylor Plaza,Houston,TX,77030-3498,48,00494900,2,1,2,9,2,1,1,2,2,11,1,1,1,-95.395743,29.7106,NA,NA,NA,NA,NA,NA,NA,NA,NA,NA,NA,NA,NA,NA,NA,NA,NA,NA,NA,NA,NA,NA,NA,NA,NA,NA,NA,NA,NA,NA,NA,NA,NA,NA,NA,NA,NA,NA,NA,NA,NA,NA,NA,NA,NA,NA,NA,NA,NA,NA
243823,PARKER UNIVERSITY,0,669,1316,421119,629.4753363228699,50.83586626139818,33.618090452261306,66.13065326633166,0.817,NA,109,193,302,39,NA,NA,Parker University,2540 Walnut Hill Lane,Dallas,TX,75229-5668,48,02305300,2,1,2,9,1,1,2,2,2,11,1,1,1,-96.893564,32.880335,35,51,127,36,35,35,51,127,36,35,28,39,100,27,29,80,76,79,75,83,51,127,36,35,41,178,201,194,142,228,3,6,13,5,6,3,6,13,5,6,0,6,7,3,4,0,100,54,60,67
223056,"BALDWIN BEAUTY SCHOOLS, INC.",0,70,136,90200,1288.571428571429,51.47058823529411,66.0377358490566,128.30188679245282,0.598,72.85714285714285,84,52,136,51,19,70,Baldwin Beauty School-South Austin,3005 S Lamar,Austin,TX,78704-4785,48,01226800,9,3,3,2,1,2,6,2,1,11,1,1,1,-97.783062,30.241662,68,74,74,36,27,68,74,74,36,27,52,66,56,31,20,76,89,76,86,74,NA,NA,NA,NA,NA,NA,NA,NA,NA,NA,NA,NA,NA,NA,NA,NA,NA,NA,NA,NA,NA,NA,NA,NA,NA,NA,NA,NA,NA,NA
420398,NORTHWEST VISTA COLLEGE,1,4300,8733,3097859,720.4323255813954,49.238520554219626,17.36111111111111,35.25920542635659,0.463,NA,5933,2800,NA,4073,227,NA,Northwest Vista College,3535 N. Ellison Drive,San Antonio,TX,78251,48,03372300,4,2,1,3,1,2,4,2,4,11,1,1,1,-98.70513,29.471308,1227,1282,1307,1897,1273,1227,1282,1307,1897,1273,854,849,890,1170,844,70,66,68,62,66,1282,1307,1897,1273,1059,3523,3584,4478,3665,3704,1464,1305,1397,1354,1605,1464,1305,1397,1354,1605,739,666,716,599,666,50,51,51,44,41
482981,ACBC LLC,0,48,138,31750,661.4583333333334,34.78260869565217,19.59183673469388,56.326530612244895,0.886,NA,82,NA,NA,0,0,0,Alamo City Barber College,8910 Bandera Road Suite 209,San Antonio,TX,78250-3227,48,04231900,9,3,3,2,1,2,6,2,1,11,1,1,1,-98.639532,29.52717,24,19,22,25,17,23,19,22,25,17,21,17,17,11,6,91,89,77,44,35,NA,NA,NA,NA,NA,NA,NA,NA,NA,NA,6,0,NA,0,12,6,0,NA,0,12,5,0,NA,0,3,83,NA,NA,NA,25
224323,UNIVERSITY OF DALLAS,0,438,1874,637950,1456.5068493150684,23.372465314834574,15.36303051560856,65.73132234303753,0.239,NA,461,900,1361,NA,NA,324,University of Dallas,1845 E Northgate Drive,Irving,TX,75062-4736,48,00365100,2,1,2,9,1,1,2,2,2,12,1,1,1,-96.919512,32.846221,371,419,376,382,379,371,419,376,382,379,315,333,321,308,308,85,79,85,81,81,419,376,382,379,476,460,423,428,428,503,NA,NA,NA,NA,NA,NA,NA,NA,NA,NA,NA,NA,NA,NA,NA,NA,NA,NA,NA,NA
229540,VICTORIA COUNTY JUNIOR COLLEGE DISTRICT (VICTORIA COLLEGE),1,467,1314,919000,1967.880085653105,35.54033485540335,9.362469927826783,26.343223736968724,0.464,60.81370449678801,942,372,1314,284,183,467,Victoria College,2200 E Red River,Victoria,TX,77901,48,00366200,4,2,1,3,1,2,4,2,2,13,1,1,1,-96.979226,28.816446,395,320,400,417,315,395,320,400,417,315,253,222,235,258,182,64,69,59,62,58,320,385,417,315,246,1131,1289,1338,1014,1171,370,313,305,296,250,369,312,305,296,250,188,148,157,130,110,51,47,51,44,44
224110,NORTH CENTRAL TEXAS COLLEGE,1,2992,8816,2185217,730.3532754010695,33.938294010889294,19.771360602656447,58.25678979713209,0.382,65.44117647058823,2831,5985,8816,1958,1034,2992,North Central Texas College,1525 W California Street,Gainesville,TX,76240-4699,48,00355800,4,2,1,3,1,2,4,2,3,32,1,1,1,-97.1658,33.6188,772,753,955,687,520,772,752,955,687,520,489,417,525,387,345,63,55,55,56,66,753,917,687,520,564,3849,3852,3705,2927,3672,1866,2176,583,721,609,1866,2176,583,721,609,982,1005,265,320,325,53,46,45,44,53
227687,RANGER COLLEGE,1,331,356,457700,1382.7794561933536,92.97752808988764,9.35821317500707,10.065026858919987,0.475,81.87311178247734,281,75,356,271,60,331,Ranger College,1100 College Circle,Ranger,TX,76470,48,00360300,4,2,1,3,1,2,4,2,2,42,1,1,1,-98.685215,32.456773,324,387,336,260,296,324,387,336,260,296,158,174,150,148,120,49,45,45,57,41,387,336,260,296,233,1229,1193,914,908,1106,611,629,575,401,453,611,629,575,401,453,305,357,274,223,315,50,57,48,56,70
481401,GRACE SCHOOL OF THEOLOGY,0,7,15,32732,4676,46.666666666666664,0.8793969849246231,1.8844221105527637,NA,NA,NA,NA,NA,NA,NA,NA,Grace School of Theology,3705 College Park Dr Ste 140,Conroe,TX,77384-4894,48,04215400,2,1,2,9,1,1,2,2,1,13,1,1,1,-95.472493,30.205731,0,0,2,0,2,0,0,2,0,2,0,0,2,0,1,NA,NA,100,NA,50,NA,2,NA,3,5,NA,60,NA,23,37,20,20,37,11,5,20,20,37,11,5,14,10,17,8,2,70,50,46,73,40
224961,GALVESTON COLLEGE,1,494,494,606113,1226.949392712551,100,14.546525323910483,14.546525323910483,0.438,82.5910931174089,408,86,494,408,86,494,Galveston College,4015 Ave Q,Galveston,TX,77550-7496,48,00497200,1,1,1,5,1,2,3,2,2,31,1,1,1,-94.807686,29.284735,129,127,0,0,0,129,127,0,0,0,69,75,0,0,0,53,59,NA,NA,NA,127,151,247,183,170,732,901,579,497,439,122,124,111,0,0,122,124,111,0,0,67,72,57,0,0,55,58,51,NA,NA
224350,DEL MAR COLLEGE DISTRICT,1,6572,11403,1877015,285.607881923311,57.63395597649741,40.408263649778654,70.11190359075258,0.572,37.47717589774802,3935,7468,11403,2463,4109,6572,Del Mar College,101 Baldwin Blvd.,Corpus Christi,TX,78404-3897,48,00356300,4,2,1,4,1,2,4,2,4,11,1,1,1,-97.40762,27.763619,560,491,524,505,234,560,491,524,505,234,350,274,323,254,125,63,56,62,50,53,491,505,505,234,295,1768,1946,1705,1088,1145,757,718,753,651,488,757,718,753,651,488,382,365,380,283,245,50,51,50,43,50
228769,THE UNIVERSITY OF TEXAS AT ARLINGTON,1,10780,27041,13559500,1257.838589981447,39.86538959358012,17.956192221204297,45.042058799033896,0.439,71.5274949083503,13802,9380,23182,7024,2796,9820,The University of Texas at Arlington,701 S. Nedderman Dr.,Arlington,TX,76013,48,00365600,1,1,1,9,1,1,2,2,5,11,1,1,1,-97.11296,32.729718,2893,3158,3400,3596,3707,2893,3158,3400,3596,3707,2049,2323,2538,2719,2633,71,74,75,76,71,3158,3400,3596,3707,4010,9298,9560,9696,9251,9358,161,210,172,111,193,161,210,172,111,193,88,125,117,71,86,55,60,68,64,45
225247,HARDIN-SIMMONS UNIVERISTY,0,1445,1445,966329.3,668.74,100,56.55577299412917,56.55577299412917,0.356,45.27845036319613,561,678,1239,561,678,1239,Hardin-Simmons University,2200 Hickory,Abilene,TX,79698-0001,48,00357100,2,1,2,9,1,1,2,2,2,12,1,1,1,-99.73564,32.476434,392,454,480,479,450,392,454,480,479,450,293,307,320,311,282,75,68,67,65,63,454,480,479,450,388,615,620,605,548,483,0,3,4,0,4,0,3,4,0,4,0,2,3,0,3,NA,67,75,NA,75
229814,WEST TEXAS A&M UNIVERSITY,1,3790,13284,1745680,460.60158311345646,28.530563083408612,31.915789473684207,111.86526315789472,0.368,59.43930808231435,6287,5060,11347,1993,1360,3353,West Texas A & M University,2501 4th Ave,Canyon,TX,79016-0001,48,00366500,1,1,1,9,1,1,2,2,4,31,1,1,1,-101.914736,34.982789,1304,1228,1170,1216,1216,1304,1228,1170,1216,1216,834,824,800,997,700,64,67,68,82,58,1228,1170,1299,1216,1244,2267,2231,2328,2278,2324,26,17,35,36,38,26,17,35,36,38,13,9,17,16,18,50,53,49,44,47
223524,DALLAS COUNTY COMMUNITY COLLEGE DBA BROOKHAVEN COLLEGE,NA,4937,44811,6806225,1378.6155560056714,11.017384124433732,19.240812190654353,174.6404770256051,0.344,NA,23040,21771,NA,4804,133,NA,Brookhaven College,3939 Valley View Ln,Farmers Branch,TX,75244-4997,48,02100200,4,2,1,3,1,2,-2,2,-2,21,1,3,9,-96.850152,32.928231,393,314,267,NA,NA,393,314,267,NA,NA,229,199,160,NA,NA,58,63,60,NA,NA,314,267,358,NA,NA,6430,6431,6370,NA,NA,659,907,892,NA,NA,659,907,892,NA,NA,249,417,363,NA,NA,38,46,41,NA,NA
226383,LUBBOCK CHRISTIAN UNIVERSITY,0,897,1568,713455,795.3790412486064,57.20663265306123,43.04222648752399,75.23992322456814,0.35,84.61538461538461,1265,303,1568,759,138,897,Lubbock Christian University,5601 19th Street,Lubbock,TX,79407-2099,48,00358600,2,1,2,8,1,1,2,2,2,11,1,1,1,-101.934426,33.575973,320,309,293,279,276,320,309,293,279,279,220,214,208,191,194,69,69,71,68,70,309,293,279,276,308,537,472,576,532,557,0,1,1,3,4,0,1,1,3,4,0,1,1,0,3,NA,100,100,0,75
228158,SOUTH PLAINS COLLEGE,1,2220,6000,2583153,1163.5824324324324,37,18.001946156341226,48.65390853065196,0.643,69.32432432432432,3420,2580,6000,1539,681,2220,South Plains College,1401 S. College Ave,Levelland,TX,79336,48,00361100,4,2,1,3,1,2,4,2,3,32,1,1,1,-102.365075,33.575904,1277,1349,1485,1253,1020,1277,1349,1485,1253,1020,709,619,513,503,453,56,46,35,40,44,1342,1570,1253,1020,1120,3406,3329,3101,2925,2942,332,359,524,582,316,332,359,524,582,316,141,161,353,104,95,42,45,67,18,30
227845,SAINT EDWARD'S UNIVERSITY INC,1,747,2753,2014736,2697.1030789825973,27.13403559752997,15.954720205040582,58.79965826569842,0.413,67.98866855524079,1199,1181,2380,480,226,706,Saint Edward's University,3001 S Congress Ave,Austin,TX,78704-6489,48,00362100,2,1,2,9,1,1,2,2,2,11,1,1,1,-97.754998,30.229618,863,790,803,695,594,863,790,802,695,594,689,622,640,503,453,80,79,80,72,76,790,803,695,594,609,1067,1077,936,785,846,1,3,1,2,1,1,3,1,2,1,0,0,1,2,1,0,0,100,100,100
226204,LEE COLLEGE,1,1216,3804,1528552,1257.032894736842,31.966351209253418,11.260301879803686,35.2254838410964,0.301,62.41776315789473,2065,1739,3804,759,457,1216,Lee College,511 S Whiting,Baytown,TX,77520,48,00358300,4,2,1,3,1,2,4,2,3,13,1,1,1,-94.978184,29.732505,356,405,396,345,505,356,405,396,345,503,250,282,288,257,111,70,70,73,74,22,387,396,345,503,299,1620,1504,1489,1282,1280,794,914,811,875,577,794,914,811,875,576,469,513,460,478,89,59,56,57,55,15
439701,THE KING'S UNIVERSITY,0,73,425,137375,1881.849315068493,17.176470588235293,9.617918313570488,55.99472990777339,0.275,63.63636363636363,167,92,259,21,12,33,The King's University,2121 E. Southlake Boulevard,Southlake,TX,76092,48,03516300,2,1,2,9,1,1,2,2,1,21,1,1,1,-97.121526,32.93973,15,15,16,18,8,15,15,16,18,8,12,11,11,11,3,80,73,69,61,38,15,18,19,10,10,103,86,85,94,57,2,7,1,1,9,2,7,1,1,9,0,4,0,0,3,0,57,0,0,33
229799,WEATHERFORD COLLEGE,0,1248,1500,1272248,1019.4294871794872,83.2,17.843866171003718,21.44695453245639,0.385,63.06089743589743,950,550,1500,787,461,1248,Weatherford College,225 College Park Drive,Weatherford,TX,76086-5699,48,00366400,1,1,1,5,1,2,3,2,3,31,1,1,1,-97.792629,32.74133,837,876,755,0,0,837,876,755,0,0,502,488,438,0,0,60,56,58,NA,NA,876,754,637,484,535,2389,2360,2190,2061,2841,274,256,319,0,0,274,256,319,0,0,134,108,147,0,0,49,42,46,NA,NA
225070,GRAYSON COUNTY JUNIOR COLLEGE DISTRICT,0,1622,2158,1078922,665.1800246609124,75.16218721037998,29.373415429192324,39.08004346251358,0.503,77.00369913686806,1699,459,2158,1249,373,1622,Grayson College,6101 Grayson Drive,Denison,TX,75020-8299,48,00357000,1,1,1,5,1,2,3,2,2,41,1,1,1,-96.633891,33.70574,559,547,0,0,29,559,547,0,0,29,335,340,0,0,5,60,62,NA,NA,17,544,347,408,324,254,1754,1667,1793,1042,1066,224,209,0,0,73,224,209,0,0,73,87,82,0,0,17,39,39,NA,NA,23
226578,MCLENNAN COUNTY JUNIOR COLLEGE DISTRICT,1,2195,2932,2449015,1115.7243735763095,74.86357435197817,15.701001430615165,20.972818311874107,0.609,75.21640091116173,2187,745,2932,1651,544,2195,McLennan Community College,1400 College Dr,Waco,TX,76708,48,00359000,4,2,1,3,1,2,4,2,3,12,1,1,1,-97.171228,31.58947,982,1044,998,815,564,981,1044,998,815,563,570,620,557,473,345,58,59,56,58,61,1044,998,817,564,532,1899,2018,1981,1396,1448,363,401,411,618,544,363,401,411,618,544,172,174,194,274,259,47,43,47,44,48
229179,TEXAS WOMAN'S UNIVERSITY,1,3500,16302,4187148,1196.328,21.469758311863572,18.34862385321101,85.46264744429882,0.521,56.600225648740135,3548,6852,10400,1505,1154,2659,Texas Woman's University,304 Administration Dr,Denton,TX,76204,48,00364600,1,1,1,9,1,1,2,2,4,12,1,1,1,-97.127842,33.226211,1278,1249,1223,1277,1090,1278,1249,1223,1277,1090,993,906,893,988,780,78,73,73,77,72,1249,1223,1277,1090,1227,3288,3355,3431,3281,3366,24,30,21,24,40,24,30,20,24,40,14,17,12,15,20,58,57,60,63,50
487320,TEXAS STATE TECHNICAL COLLEGE,1,3294,8851,9965156,3025.2446873102613,37.216133770195455,22.338261223382613,60.023057100230574,0.605,75.68306010928961,6281,2570,8851,2493,801,3294,Texas State Technical College,3801 Campus Drive,Waco,TX,76705,48,00363400,4,2,1,4,1,2,4,2,4,12,1,1,1,-97.08471,31.639295,1657,1247,1247,1552,1599,1650,1245,1245,1547,1594,1243,874,969,1100,899,75,70,78,71,56,1230,1247,1552,1599,1779,3694,3677,3207,4050,3640,976,858,827,868,570,975,858,827,868,567,663,410,442,520,249,68,48,53,60,44
227368,THE UNIVERSITY OF TEXAS RIO GRANDE VALLEY,1,21598,24869,26242959.4,1215.0643300305585,86.8470786923479,63.963750518272825,73.65100989160695,0.699,72.21354979706524,16524,6184,22708,13878,5340,19218,The University of Texas Rio Grande Valley,1201 W University Dr,Edinburg,TX,78539-2999,48,00359900,1,1,1,9,1,1,2,2,5,12,1,1,1,-98.173567,26.306759,3616,4197,4234,4477,4851,3616,4197,4234,4477,4851,2865,3209,3238,3615,3479,79,76,76,81,72,4197,4234,4477,4851,4241,6187,6241,6583,6995,6828,328,307,331,316,487,328,307,331,316,487,211,188,215,199,269,64,61,65,63,55
224004,CONCORDIA UNIVERSITY TEXAS,1,972,1348,756265,778.0504115226338,72.10682492581603,31.994733377221856,44.37129690585912,0.427,64.24759871931697,602,635,1237,602,335,937,Concordia University Texas,11400 Concordia University Drive,Austin,TX,78726,48,00355700,2,1,2,9,1,1,2,2,2,11,1,1,1,-97.835703,30.420232,270,274,213,233,217,270,274,213,233,217,163,161,144,152,121,60,59,68,65,56,274,213,233,217,195,502,449,461,397,423,10,4,4,2,2,10,4,4,2,2,5,2,1,2,2,50,50,25,100,100
227386,PANOLA COLLEGE,0,768,769,765603,996.87890625,99.8699609882965,22.03730272596843,22.06599713055954,0.601,65.88541666666666,507,262,769,506,262,768,Panola College,1109 W Panola Street,Carthage,TX,75633-2397,48,00360000,4,2,1,3,1,2,4,2,2,32,1,1,1,-94.356355,32.156214,382,391,348,293,286,380,391,348,293,286,226,186,175,160,195,59,48,50,55,68,391,348,293,286,301,1303,1403,1518,920,940,42,60,52,51,48,42,59,52,51,48,15,22,18,23,33,36,37,35,45,69
229887,WILEY COLLEGE,1,490,490,526490.3,1074.47,100,43.75,43.75,0.867,85.91836734693878,421,69,490,421,69,490,Wiley College,711 Wiley Ave,Marshall,TX,75670,48,00366900,2,1,2,5,1,2,2,2,1,32,1,1,1,-94.376814,32.537641,195,175,123,74,109,195,175,123,74,109,109,68,63,52,37,56,39,51,70,34,175,123,74,110,171,392,209,133,157,248,13,NA,8,1,11,13,NA,8,1,11,5,NA,1,1,4,38,NA,13,100,36
228699,TEXARKANA COLLEGE,0,1124,2273,1283800,1142.170818505338,49.45006599208095,20.017809439002672,40.48085485307213,0.689,89.85765124555161,1448,825,2273,1010,114,1124,Texarkana College,2500 N Robison Rd,Texarkana,TX,75599,48,00362800,4,2,1,3,1,2,4,2,2,13,1,1,1,-94.078,33.441868,430,448,397,361,280,429,447,397,361,280,201,200,195,180,134,47,45,49,50,48,448,397,361,280,267,699,658,576,517,500,153,126,131,155,141,153,126,131,155,141,63,59,63,67,55,41,47,48,43,39
229841,WHARTON COUNTY JUNIOR COLLEGE,1,1001,1949,1530303,1528.7742257742257,51.35967162647511,10.320651613568408,20.094855139705125,0.35,77.02297702297702,1361,588,1949,771,230,1001,Wharton County Junior College,911 Boling Hwy,Wharton,TX,77488,48,00366800,4,2,1,3,1,2,4,2,3,32,1,1,1,-96.085815,29.3238,1190,1278,1338,1373,984,1190,1278,1338,1373,984,838,903,959,902,668,70,71,72,66,68,1278,1338,1373,984,1034,2702,2603,2589,2023,1886,465,422,453,371,330,465,422,453,371,330,249,211,222,155,154,54,50,49,42,47
440776,"INTERACTIVE LEARNING SYSTEMS, INC",0,NA,NA,0,NA,NA,NA,NA,0.773,NA,NA,NA,NA,NA,NA,NA,Interactive College of Technology,213 W Southmore St    Suite 101,Pasadena,TX,77502,48,02331300,6,2,3,3,1,2,4,2,1,21,1,1,1,-95.213765,29.690435,5,4,12,11,8,5,4,12,11,8,2,2,6,7,6,40,50,50,64,75,NA,NA,NA,NA,NA,NA,NA,NA,NA,NA,NA,NA,NA,NA,NA,NA,NA,NA,NA,NA,NA,NA,NA,NA,NA,NA,NA,NA,NA,NA
429085,AMERICAN COLLEGE OF ACUPUNCTURE & ORIENTAL MEDICINE,0,33,33,22970,696.060606060606,100,23.7410071942446,23.7410071942446,NA,NA,0,0,0,0,0,0,American College of Acupuncture and Oriental Med,9100 Park  West Drive,Houston,TX,77063-4104,48,03153300,3,1,3,9,2,1,1,2,1,11,1,1,1,-95.524765,29.735747,NA,NA,NA,NA,NA,NA,NA,NA,NA,NA,NA,NA,NA,NA,NA,NA,NA,NA,NA,NA,NA,NA,NA,NA,NA,NA,NA,NA,NA,NA,NA,NA,NA,NA,NA,NA,NA,NA,NA,NA,NA,NA,NA,NA,NA,NA,NA,NA,NA,NA
224226,DALLAS BAPTIST UNIVERSITY,0,414,2442,1099339,2655.4082125603863,16.953316953316953,7.15272978576365,42.190739460953694,0.274,44.50867052023121,621,1241,1862,154,192,346,Dallas Baptist University,3000 Mountain Creek Parkway,Dallas,TX,75211-9299,48,00356000,2,1,2,9,1,1,2,2,2,11,1,1,1,-96.947006,32.710017,522,538,535,571,607,519,537,532,565,601,364,416,381,427,410,70,77,72,76,68,538,535,571,607,679,811,764,771,851,1175,5,2,13,1,9,4,2,13,1,5,0,0,1,0,1,0,0,8,0,20
228608,TEMPLE COLLEGE,1,2099,7511,1022617.55,487.1927346355408,27.9456796698176,30.831374853113985,110.32608695652172,0.578,NA,3207,4304,7511,NA,NA,NA,Temple College,2600 S 1st St,Temple,TX,76504-7435,48,00362700,4,2,1,3,1,2,4,2,2,13,1,1,1,-97.350471,31.070715,358,412,357,356,394,358,412,357,356,394,209,232,217,221,327,58,56,61,62,83,417,357,356,394,250,1072,1058,1087,881,2296,234,252,262,319,200,234,252,262,319,200,89,99,104,133,146,38,39,40,42,73
224758,"EXPOSITO PARTNERS, LLC",0,36,36,41065,1140.6944444444443,100,63.1578947368421,63.1578947368421,0.672,83.33333333333334,30,NA,36,30,NA,36,Exposito School of Hair Design,3710 Mockingbird Ln.,Amarillo,TX,79109-3208,48,02267100,9,3,3,2,1,2,6,2,1,12,1,1,1,-101.881271,35.183578,12,13,15,14,17,12,13,15,13,17,6,8,12,10,13,50,62,80,77,76,NA,NA,NA,NA,NA,NA,NA,NA,NA,NA,5,0,5,2,3,5,0,5,2,3,3,0,2,1,3,60,NA,40,50,100
229780,WAYLAND BAPTIST UNIVERSITY,1,699,2288,1202800,1720.743919885551,30.550699300699304,10.586097228532486,34.650916250189304,0.549,69.18032786885246,1085,678,1763,422,188,610,Wayland Baptist University,1900 W 7th St.,Plainview,TX,79072,48,00366300,2,1,2,9,1,1,2,2,2,33,1,1,1,-101.730042,34.187677,316,271,280,218,265,316,271,280,218,264,134,132,116,82,104,42,49,41,38,39,271,281,218,268,202,665,591,524,596,464,25,26,29,24,27,25,26,29,24,27,11,15,14,9,14,44,58,48,38,52
228866,TEXAS CHIROPRACTIC COLLEGE FOUNDATION INC.,0,235,253,114070.75,485.40744680851066,92.88537549407114,72.75541795665634,78.328173374613,NA,NA,0,0,0,0,0,0,Texas Chiropractic College Foundation Inc,5912 Spencer Hwy,Pasadena,TX,77505-1699,48,00363500,2,1,2,9,2,1,1,2,1,21,1,1,1,-95.150135,29.663702,NA,NA,NA,NA,NA,NA,NA,NA,NA,NA,NA,NA,NA,NA,NA,NA,NA,NA,NA,NA,NA,NA,NA,NA,NA,NA,NA,NA,NA,NA,NA,NA,NA,NA,NA,NA,NA,NA,NA,NA,NA,NA,NA,NA,NA,NA,NA,NA,NA,NA
224554,TEXAS A&M UNIVERSITY-COMMERCE,0,5992,9928,2443099.69,407.7269175567423,60.354552780016114,40.990559584074425,67.91626761526885,0.558,53.350218742804515,4224,2932,7156,2317,2026,4343,Texas A & M University-Commerce,2600 South Neal Street,Commerce,TX,75428-3011,48,00356500,1,1,1,9,1,1,2,2,4,32,1,1,1,-95.908451,33.243745,990,994,1059,949,664,990,994,1059,949,664,663,653,666,547,397,67,66,63,58,60,995,1059,950,697,772,2287,2335,2376,2045,1969,14,20,16,20,48,14,20,16,20,48,4,5,7,6,20,29,25,44,30,42
228547,TARRANT COUNTY COLLEGE DISTRICT,1,20915,33878,14705750,703.1197704996414,61.73623000177106,27.46084056562898,44.48091593030737,0.488,76.8634950992111,17793,16085,33878,16076,4839,20915,Tarrant County College District,1500 Houston St,Fort Worth,TX,76102-6524,48,00362600,4,2,1,3,1,2,4,2,5,11,1,1,1,-97.327941,32.747495,3977,4186,4005,3947,2172,3977,4186,4005,3947,2172,2557,2628,2645,2493,1337,64,63,66,63,62,4186,3999,3947,2172,1583,16461,15585,15724,5928,6547,4012,4379,3928,3857,3112,4012,4379,3928,3857,3112,2009,2104,1963,1810,1583,50,48,50,47,51
226806,MIDLAND COLLEGE,0,599,1953,749050,1250.500834724541,30.670762928827443,6.477076124567474,21.11807958477509,0.338,72.62103505843072,1307,646,1953,435,164,599,Midland College,3600 N Garfield,Midland,TX,79705,48,00979700,1,1,1,5,1,2,3,2,2,12,1,1,1,-102.106153,32.029646,0,0,0,0,0,0,0,0,0,0,0,0,0,0,0,NA,NA,NA,NA,NA,528,465,559,388,481,1895,1655,973,850,1010,0,0,0,0,0,0,0,0,0,0,0,0,0,0,0,NA,NA,NA,NA,NA
226587,MCMURRY UNIVERSITY,1,676,866,557975,825.4068047337278,78.06004618937644,50.48543689320388,64.67513069454817,0.517,NA,459,399,858,462,211,NA,McMurry University,S 14th and Sayles Blvd,Abilene,TX,79697,48,00359100,2,1,2,7,1,1,2,2,2,12,1,1,1,-99.748682,32.429776,284,246,219,255,226,284,246,219,255,226,177,152,153,166,150,62,62,70,65,66,246,219,255,226,300,419,385,392,328,443,0,0,2,4,1,0,0,2,4,1,0,0,1,2,0,NA,NA,50,50,0
226833,MIDWESTERN STATE UNIVERSITY,0,3379,4007,2207508,653.3021604024859,84.3274270027452,48.00397783776105,56.92569967324904,0.48,57.05657978385251,1797,1891,3688,1795,1351,3146,Midwestern State University,3410 Taft Blvd,Wichita Falls,TX,76308-2099,48,00359200,1,1,1,9,1,1,2,2,3,12,1,1,1,-98.519386,33.874809,734,814,889,859,745,734,814,889,859,745,490,526,599,566,467,67,65,67,66,63,814,890,859,745,745,1452,1565,1468,1366,1468,6,5,7,7,55,6,5,7,7,55,4,3,4,4,19,67,60,57,57,35
227304,ODESSA COLLEGE,1,1230,3705,1833000,1490.2439024390244,33.198380566801625,13.42355123867729,40.43435556040598,0.497,71.0569105691057,2281,1424,3705,874,356,1230,Odessa College,201 W University Blvd,Odessa,TX,79764,48,00359600,1,1,1,5,1,2,3,2,3,12,1,1,1,-102.383477,31.866812,613,570,519,493,492,613,570,519,493,492,377,332,301,296,284,62,58,58,60,58,567,519,493,492,660,3544,2553,2770,2959,3640,492,369,450,566,509,492,369,450,566,509,206,162,167,207,195,42,44,37,37,38
222831,ANGELO STATE UNIVERSITY,1,2659,5433,3366765,1266.1771342610004,48.94165286213878,22.654852176876545,46.28951180028969,0.482,53.09194467046379,2216,2661,4877,1305,1153,2458,Angelo State University,2601 W. Avenue N,San Angelo,TX,76909,48,00354100,1,1,1,9,1,1,2,2,4,12,1,1,1,-100.465051,31.440914,1556,1563,1517,1424,1258,1556,1562,1517,1424,1257,1044,1044,1048,1010,863,67,67,69,71,69,1563,1517,1424,1258,1270,3969,3590,3862,3834,3941,28,12,19,12,21,28,12,19,12,21,10,4,6,2,6,36,33,32,17,29
229160,TEXAS WESLEYAN UNIVERSITY,1,577,1398,928955,1609.9740034662043,41.27324749642346,19.11228883736337,46.30672408082147,0.453,71.5,666,363,1029,286,114,400,Texas Wesleyan University,1201 Wesleyan St,Fort Worth,TX,76105-1536,48,00364500,2,1,2,9,1,1,2,2,2,11,1,1,1,-97.279613,32.732962,301,306,298,328,243,301,306,298,328,243,173,155,154,209,148,57,51,52,64,61,306,298,327,243,362,605,527,588,426,524,NA,0,0,NA,NA,NA,0,0,NA,NA,NA,0,0,NA,NA,NA,NA,NA,NA,NA
228529,TARLETON STATE UNIVERSITY,0,3997,17244,5403901.38,1351.989337002752,23.179076780329392,26.31163188730169,113.51458100190904,0.396,51.24079629124625,5325,9113,14438,1879,1788,3667,Tarleton State University,1333 W. Washington,Stephenville,TX,76401-0000,48,00363100,1,1,1,9,1,1,2,2,4,33,1,1,1,-98.214866,32.214988,2043,1743,2045,1981,2176,2043,1743,2045,1981,2176,1372,1212,1334,1367,1516,67,70,65,69,70,1744,2045,1982,2176,2003,3251,3540,3445,3638,3489,126,155,116,91,98,126,155,116,91,98,81,96,65,59,53,64,62,56,65,54
222178,ABILENE CHRISTIAN UNIVERSITY,0,814,3258,1822479,2238.91769041769,24.98465316144874,13.88130968622101,55.55934515688949,0.27,52.05882352941177,995,1765,2760,354,326,680,Abilene Christian University,NA,Abilene,TX,79699,48,00353700,2,1,2,9,1,1,2,2,3,12,1,1,1,-99.709797,32.468943,993,940,905,902,853,993,940,905,902,852,760,723,715,690,675,77,77,79,76,79,940,905,907,853,833,1085,1027,1073,1010,949,54,32,19,25,6,54,32,19,25,6,29,14,11,16,2,54,44,58,64,33
225520,HOWARD COUNTY JUNIOR COLLEGE DISTRICT,1,728,1478,727304,999.043956043956,49.25575101488498,13.152664859981932,26.702800361336948,0.525,68.54395604395604,775,703,1478,499,229,728,Howard College,1001 Birdwell Lane,Big Spring,TX,79720,48,00357400,4,2,1,3,1,2,4,2,2,32,1,1,1,-101.450104,32.252292,362,410,410,366,330,362,410,410,366,330,150,161,176,214,202,41,39,43,58,61,410,410,366,330,365,1973,2203,1912,1544,1980,178,129,158,125,110,178,129,158,125,110,81,56,65,56,60,46,43,41,45,55
222576,AMARILLO COLLEGE,1,4902,4902,4437979.5600000005,905.3405875153,100,39.18465227817746,39.18465227817746,0.599,74.25540595675234,3640,1262,4902,3640,1262,4902,Amarillo College,2011 S. Washington,Amarillo,TX,79109,48,00354000,4,2,1,3,1,2,4,2,3,12,1,1,1,-101.846988,35.187839,812,734,964,1261,933,812,733,962,1261,933,559,528,657,784,625,69,72,68,62,67,734,964,1261,933,971,2949,2924,2995,2433,2744,581,494,314,395,289,581,494,314,394,289,239,214,173,169,119,41,43,55,43,41
223898,CISCO COLLEGE,1,1047,2901,894132,853.9942693409743,36.09100310237849,21.981944152844846,60.90699139197985,0.582,90.25787965616044,2611,290,2901,945,102,1047,Cisco College,101 College Heights,Cisco,TX,76437,48,00355300,4,2,1,3,1,2,4,2,2,33,1,1,1,-98.985206,32.401132,369,394,398,398,327,369,394,398,398,327,177,202,197,201,187,48,51,49,51,57,392,397,398,327,301,1393,1515,1593,1328,1272,652,654,739,804,725,652,654,739,804,725,361,350,423,337,412,55,54,57,42,57
228431,STEPHEN F. AUSTIN STATE UNIVERSITY,0,4713,5568,5262539,1116.6006789730532,84.64439655172413,31.52930157880653,37.24913031843725,0.417,59.69152854511971,2755,2337,5092,2593,1751,4344,Stephen F Austin State University,"2008 Alumni Drive, Rusk 206",Nacogdoches,TX,75961,48,00362400,1,1,1,9,1,1,2,2,4,33,1,1,1,-94.64908,31.621056,2342,2320,2184,2043,1722,2342,2320,2184,2043,1722,1677,1636,1529,1572,1313,72,71,70,77,76,2320,2184,2043,1722,1684,3358,3844,3786,3161,2988,29,20,31,19,42,29,20,31,19,42,9,10,12,10,19,31,50,39,53,45
228194,"SOUTH TEXAS COLLEGE OF LAW HOUSTON, INC.",0,693,693,261001,376.6248196248196,100,69.43887775551102,69.43887775551102,NA,NA,0,0,0,0,0,0,South Texas College of Law Houston,1303 San Jacinto Street,Houston,TX,77002,48,00497700,2,1,2,9,2,1,1,2,1,11,1,1,1,-95.36455,29.753171,NA,NA,NA,NA,NA,NA,NA,NA,NA,NA,NA,NA,NA,NA,NA,NA,NA,NA,NA,NA,NA,NA,NA,NA,NA,NA,NA,NA,NA,NA,NA,NA,NA,NA,NA,NA,NA,NA,NA,NA,NA,NA,NA,NA,NA,NA,NA,NA,NA,NA
225423,HOUSTON COMMUNITY COLLEGE,1,18167,26809,15992439,880.3015907964991,67.76455667872729,22.27166850557803,32.866249846757384,0.522,88.75983926900423,23450,3359,26809,16125,2042,18167,Houston Community College,3100 Main Street,Houston,TX,77002,48,01063300,4,2,1,3,1,2,4,2,5,11,1,1,1,-95.377319,29.742114,3586,3847,4022,4167,3255,3586,3847,4022,4167,3255,2342,2551,2563,2538,2064,65,66,64,61,63,3847,4022,4167,3255,3646,12339,12727,12843,9284,14513,3973,4399,4075,4175,2678,3973,4399,4075,4175,2678,1930,2083,1814,1646,1291,49,47,45,39,48
222822,ANGELINA COUNTY JUNIOR COLLEGE DISTRICT,1,1457,1457,1337325.1800000002,917.8621688400824,100,22.829833907865872,22.829833907865872,0.519,85.51818805765271,1246,211,1457,1246,211,1457,Angelina College,3500 South First,Lufkin,TX,75902-1768,48,00666100,4,2,1,3,1,2,4,2,2,33,1,1,1,-94.731625,31.287444,549,675,427,490,293,548,675,427,490,293,232,218,157,74,171,42,32,37,15,58,675,427,258,212,478,2220,2245,1281,1291,1411,277,291,209,173,252,277,291,209,173,252,272,109,93,22,78,98,37,44,13,31
227881,SAM HOUSTON STATE UNIVERSITY,1,7862,11641,9636802,1225.7443398626303,67.5371531655356,33.16599873444421,49.10778316810799,0.461,53.266695639577,6917,3374,10291,3677,3226,6903,Sam Houston State University,1806 Ave J,Huntsville,TX,77340,48,00360600,1,1,1,9,1,1,2,2,5,32,1,1,1,-95.546205,30.714738,2667,2780,2827,2858,2706,2667,2780,2827,2858,2706,2048,2105,2131,2255,1963,77,76,75,79,73,2780,2827,2858,2706,2758,5503,5386,5541,5171,5292,91,93,56,70,137,91,93,56,70,137,58,50,34,44,82,64,54,61,63,60
228459,TEXAS STATE UNIVERSITY,1,17668,27378,15895755,899.6918157120217,64.53356709766966,41.299672744273025,63.99719495091164,0.394,48.72760400850289,11421,13619,25040,8023,8442,16465,Texas State University,601 University Dr,San Marcos,TX,78666,48,00361500,1,1,1,9,1,1,2,2,5,13,1,1,1,-97.943029,29.888885,5513,5661,5966,6116,5431,5511,5731,5963,6110,5430,4282,4421,4511,4693,4180,78,77,76,77,77,5661,5966,6116,5431,6196,9526,9675,9749,8916,9762,219,213,193,246,430,219,213,194,246,430,123,119,104,137,235,56,56,54,56,55
227924,SAN ANTONIO COLLEGE,1,6281,11143,8148673.220000001,1297.3528450883618,56.36722606120435,NA,NA,NA,100,8546,2597,11143,6281,0,6281,San Antonio College,"1819 N. Main Ave.,",San Antonio,TX,78212-3941,48,00916300,4,2,1,3,1,2,4,2,4,11,1,1,1,-98.497647,29.44634,676,825,976,1549,1118,676,825,976,1549,1118,403,477,653,874,653,60,58,67,56,58,825,976,1549,1118,1178,4170,3761,5187,4283,4618,1851,2043,1630,1751,1881,1851,2043,1630,1751,1881,802,752,633,588,634,43,37,39,34,34
228343,SOUTHWESTERN UNIVERSITY,0,665,1410,606725,912.3684210526316,47.16312056737589,44.932432432432435,95.27027027027027,0.261,48.87218045112782,325,1085,1410,325,340,665,Southwestern University,1001 E. University Avenue,Georgetown,TX,78626,48,00362000,2,1,2,5,1,2,2,2,2,13,1,1,1,-97.665738,30.634341,381,362,441,443,361,381,362,441,443,361,329,293,378,380,291,86,81,86,86,81,362,441,443,361,354,403,490,501,411,407,NA,NA,1,1,0,NA,NA,1,1,0,NA,NA,1,1,0,NA,NA,100,100,NA
223320,COASTAL BEND COLLEGE,1,1242,2755,32695,26.324476650563607,45.081669691470054,19.19035846724351,42.56798516687269,0.578,82.1256038647343,1965,790,2755,1020,222,1242,Coastal Bend College,3800 Charco Rd,Beeville,TX,78102,48,00354600,4,2,1,4,1,2,4,2,2,32,1,1,1,-97.755896,28.435194,343,315,457,402,250,346,315,457,402,250,140,107,272,171,137,40,34,60,43,55,306,482,336,243,163,1567,902,1509,485,1668,149,174,300,181,95,152,174,300,181,95,104,108,124,78,41,68,62,41,43,43
226134,LAREDO COLLEGE,1,5257,7531,9241200,1757.8847251284003,69.80480679856593,39.287048800538074,56.28129437261789,0.769,86.87464333269925,6554,977,7531,4567,690,5257,Laredo College,West End Washington St,Laredo,TX,78040-4395,48,00358200,1,1,1,5,1,2,3,2,3,11,1,1,1,-99.520772,27.506477,687,890,0,0,0,687,890,0,0,0,548,608,0,0,0,80,68,NA,NA,NA,890,1065,1273,828,815,2002,1923,1962,1300,1718,852,910,0,0,0,852,910,0,0,0,464,456,0,0,0,54,50,NA,NA,NA
228042,SCHREINER UNIVERSITY,1,932,932,1181202,1267.384120171674,100,51.57719977863863,51.57719977863863,0.46,28.00429184549356,261,671,932,261,671,932,Schreiner University,2100 Memorial Blvd,Kerrville,TX,78028-5697,48,00361000,2,1,2,8,1,1,2,2,2,33,1,1,1,-99.130586,30.031458,302,341,359,309,297,302,341,359,309,297,214,208,231,199,191,71,61,64,64,64,341,359,309,297,251,496,602,476,436,358,0,0,0,0,1,0,0,0,0,1,0,0,0,0,1,NA,NA,NA,NA,100
227146,"NAVARRO COLLEGE",0,691,855,2139622,3096.4138929088276,80.8187134502924,5.821888954419075,7.203639733760216,0.525,79.3053545586107,647,208,855,548,143,691,Navarro College,3200 W 7th Avenue,Corsicana,TX,75110,48,00359300,4,2,1,3,1,2,4,2,3,32,1,1,1,-96.498731,32.076061,1224,1197,1255,968,868,1224,1197,1255,968,868,560,608,636,516,477,46,51,51,53,55,1197,1255,968,829,821,2382,2137,1695,1326,1421,497,512,336,228,227,497,512,336,228,227,205,219,119,112,90,41,43,35,49,40
223816,CENTRAL TEXAS COLLEGE DISTRICT,0,972,6861,1224750,1260.030864197531,14.167031045037168,3.4409515717926933,24.288445199660153,0.595,NA,2457,4404,NA,656,316,NA,Central Texas College,6200 West Central Texas Expressway,Killeen,TX,76549-4199,48,00400300,4,2,1,3,1,2,4,2,4,22,1,1,1,-97.810827,31.120516,735,672,729,910,364,729,668,726,908,362,343,360,406,502,190,47,54,56,55,52,672,729,910,364,332,4608,4742,4973,2009,2164,1677,1411,1407,1709,760,1675,1407,1405,1709,760,364,499,503,497,303,22,35,36,29,40
226879,WADE COLLEGE INC.,0,160,160,133989,837.43125,100,74.76635514018692,74.76635514018692,0.629,67.5,108,52,160,108,52,160,Wade College,"1950 N. Stemmons Freeway, Suite 4080 Dallas INFOMART",Dallas,TX,75207,48,01013000,3,1,3,5,1,2,2,2,1,11,1,1,1,-96.819516,32.800854,15,4,4,1,4,15,4,4,1,4,13,4,4,1,3,87,100,100,100,75,9,15,30,21,11,25,50,88,61,67,2,0,0,1,2,2,0,0,1,2,1,0,0,1,2,50,NA,NA,100,100
224305,DALLAS THEOLOGICAL SEMINARY,0,144,1384,430072.2,2986.6125,10.404624277456648,4.945054945054945,47.527472527472526,NA,NA,0,0,0,0,0,0,Dallas Theological Seminary,3909 Swiss Ave,Dallas,TX,75204,48,00356200,2,1,2,9,2,1,1,2,2,11,1,1,1,-96.780497,32.795361,NA,NA,NA,NA,NA,NA,NA,NA,NA,NA,NA,NA,NA,NA,NA,NA,NA,NA,NA,NA,NA,NA,NA,NA,NA,NA,NA,NA,NA,NA,NA,NA,NA,NA,NA,NA,NA,NA,NA,NA,NA,NA,NA,NA,NA,NA,NA,NA,NA,NA
402800,TRI-STATE BEAUTY SCHOOL INC.,0,114,114,161276,1414.701754385965,100,44.70588235294118,44.70588235294118,0.829,82.45614035087719,94,20,114,94,20,114,Tri-State Cosmetology Institute,1120 Vista de Oro Dr,El Paso,TX,79935,48,02224600,9,3,3,2,1,2,6,2,1,11,1,1,1,-106.3372,31.749969,19,31,13,28,17,18,29,13,27,17,15,22,11,26,15,83,76,85,96,88,NA,NA,NA,NA,NA,NA,NA,NA,NA,NA,2,0,0,1,2,2,0,0,1,2,2,0,0,0,1,100,NA,NA,0,50
225371,HILL COLLEGE,0,451,1226,668279,1481.7716186252771,36.7862969004894,6.430914016825895,17.48181947811208,0.44,81.81818181818183,924,302,NA,369,82,451,Hill College,112 Lamar Dr,Hillsboro,TX,76645,48,00357300,4,2,1,3,1,2,4,2,2,32,1,1,1,-97.088332,32.010928,433,508,550,538,409,433,507,550,538,409,104,257,316,295,189,24,51,57,55,46,508,550,553,409,391,2165,1946,1996,2248,1477,212,142,145,119,159,212,142,145,119,159,56,60,55,41,66,26,42,38,34,42
224679,WESTERN TECHNICAL COLLEGE,0,1151,1813,1751989,1522.1450912250218,63.485934914506345,65.73386636207881,103.54083380925184,0.645,88.01042571676803,1231,582,1813,1013,138,1151,Western Technical College,9624 Plaza Circle,El Paso,TX,79927,48,02098300,3,1,3,5,1,2,3,2,2,11,1,1,1,-106.319269,31.675953,171,0,20,6,12,169,0,19,6,12,110,0,11,4,10,65,NA,58,67,83,NA,NA,NA,NA,NA,NA,NA,NA,NA,NA,62,NA,0,0,4,62,NA,0,0,4,15,NA,0,0,4,24,NA,NA,NA,100
228486,SOUTHWESTERN CHRISTIAN COLLEGE,1,90,90,72000,800,100,86.53846153846155,86.53846153846155,0.596,NA,NA,NA,90,NA,NA,90,Southwestern Christian College,200 Bowser Circle,Terrell,TX,75160-4812,48,00361800,2,1,2,5,1,2,3,2,1,32,1,1,1,-96.285649,32.735508,5,8,0,2,0,5,8,0,2,0,3,4,0,1,0,60,50,NA,50,NA,93,32,39,33,39,97,35,55,34,51,0,0,0,0,0,0,0,0,0,0,0,0,0,0,0,NA,NA,NA,NA,NA
224244,DALLAS CHRISTIAN COLLEGE,0,99,99,82170,830,100,41.596638655462186,41.596638655462186,0.619,NA,53,46,NA,53,46,NA,Dallas Christian College,2700 Christian Pkwy.,Dallas,TX,75234-7299,48,00694100,2,1,2,5,1,2,2,2,1,21,1,1,1,-96.887117,32.913692,30,46,49,34,47,30,46,49,34,47,15,23,22,12,20,50,50,45,35,43,46,49,34,47,105,88,85,77,139,179,2,2,0,NA,3,2,2,0,NA,3,1,1,0,NA,1,50,50,NA,NA,33
228884,TEXAS COLLEGE,1,511,767,784880,1535.9686888454012,66.62320730117341,39.98435054773083,60.01564945226917,0.729,100,NA,NA,NA,511,0,511,Texas College,2404 N. Grand Avenue,Tyler,TX,75702,48,00363800,2,1,2,5,1,2,2,2,1,12,1,1,1,-95.312454,32.37456,264,255,274,189,153,264,246,274,188,153,132,160,125,78,48,50,65,46,41,31,266,274,190,153,178,401,397,287,204,256,0,0,0,0,3,0,0,0,0,3,0,0,0,0,0,NA,NA,NA,NA,0
225308,TRINITY VALLEY COMMUNITY COLLEGE,1,704,5444,932620,1324.7443181818182,12.93166789125643,7.113985448666129,55.01212611156022,0.532,75,2476,2968,5444,528,176,704,Trinity Valley Community College,100 Cardinal Drive,Athens,TX,75751,48,00357200,4,2,1,3,1,2,4,2,3,32,1,1,1,-95.858513,32.196596,774,708,724,775,0,765,705,724,775,0,342,341,367,374,0,45,48,51,48,NA,708,724,538,373,424,1971,1590,1059,1579,1108,340,300,207,2528,0,330,300,207,2528,0,89,96,62,1260,0,27,32,30,50,NA
229355,TYLER JUNIOR COLLEGE,0,4524,12996,3697824,817.3793103448276,34.81071098799631,27.45645445165989,78.87358135582933,0.569,61.5605658709107,9644,3352,12996,2785,1739,4524,Tyler Junior College,1400 East Fifth Street,Tyler,TX,75701,48,00364800,1,1,1,5,1,2,3,2,4,12,1,1,1,-95.284122,32.33601,0,0,0,0,0,0,0,0,0,0,0,0,0,0,0,NA,NA,NA,NA,NA,2420,2697,2516,2315,2237,4775,4323,4858,4584,4971,0,0,0,0,0,0,0,0,0,0,0,0,0,0,0,NA,NA,NA,NA,NA
440989,"TBES, INC.",0,502,537,414675.6,826.0470119521912,93.48230912476724,57.04545454545455,61.02272727272727,0.83,92.43027888446214,481,56,537,464,38,502,Texas Barber College,"8201 S. Gessner Road, Suite A",Houston,TX,77036,48,02568100,9,3,3,2,1,2,6,2,1,11,1,1,1,-95.532975,29.69036,48,54,80,78,72,48,53,79,78,71,29,20,25,26,30,60,38,32,33,42,NA,NA,NA,NA,NA,NA,NA,NA,NA,NA,NA,NA,NA,NA,NA,NA,NA,NA,NA,NA,NA,NA,NA,NA,NA,NA,NA,NA,NA,NA
494728,MICHAELS BARBER ACADEMY,0,18,18,29701,1650.0555555555557,100,56.25,56.25,NA,100,18,0,18,18,0,18,Michael's Barber & Hair Stylist Academy,2413 West Airport Freeway,Irving,TX,75062-6016,48,04287300,9,3,3,2,1,2,6,2,1,12,1,1,1,-96.978283,32.838765,NA,NA,5,19,16,NA,NA,5,19,16,NA,NA,1,14,8,NA,NA,20,74,50,NA,NA,NA,NA,NA,NA,NA,NA,NA,NA,NA,NA,0,2,2,NA,NA,0,2,2,NA,NA,0,2,2,NA,NA,NA,100,100
227377,TEXAS SOUTHMOST COLLEGE,1,3118,3118,1247200,400,100,31.943448417170373,31.943448417170373,0.839,87.10711994868505,2716,402,3118,2716,402,3118,Texas Southmost College,80 Fort Brown,Brownsville,TX,78520,48,03064600,4,2,1,3,1,2,4,2,3,12,1,1,1,-97.492241,25.899628,385,397,497,801,681,385,397,497,801,681,276,275,326,451,323,72,69,66,56,47,397,497,801,683,563,2502,3027,3727,3428,2238,549,594,552,631,399,549,594,552,631,399,352,347,318,331,281,64,58,58,52,70
222567,ALVIN COMMUNITY COLLEGE,1,784,2280,1138749,1452.4859693877552,34.385964912280706,9.661121380160196,28.09611829944547,0.332,71.30102040816327,1516,764,2280,559,225,784,Alvin Community College,3110 Mustang Rd,Alvin,TX,77511-4898,48,00353900,4,2,1,4,1,2,4,2,3,21,1,1,1,-95.240671,29.396244,375,562,519,370,327,375,562,519,370,327,232,309,326,205,203,62,55,63,55,62,562,524,370,327,201,2178,2943,2916,2022,1632,332,460,441,344,215,332,460,441,344,215,143,197,234,144,101,43,43,53,42,47
227979,SAN JACINTO COMMUNITY COLLEGE DISTRICT,1,2722,19186,4473232,1643.362233651727,14.187428333159597,6.356842596917328,44.80616534329753,0.383,84.71711976487877,10602,8584,19186,2306,416,2722,San Jacinto Community College,8060 Spencer Hwy,Pasadena,TX,77505,48,00360900,1,1,1,5,1,2,3,2,5,21,1,1,1,-95.114677,29.660032,2012,2338,2431,0,0,2012,2338,2431,0,0,1450,1685,1745,0,0,72,72,72,NA,NA,2338,2431,3297,3147,2618,7407,7935,7509,6612,7722,3395,3193,3509,0,0,3395,3193,3509,0,0,1933,1836,2147,0,0,57,58,61,NA,NA
226471,UNIVERSITY OF MARY HARDIN-BAYLOR,0,1236,2875,1774347,1435.5558252427184,42.99130434782609,29.442591710338256,68.48499285373988,0.383,55.09641873278237,1114,1456,2570,600,489,1089,University of Mary Hardin-Baylor,900 College St,Belton,TX,76513-2599,48,00358800,2,1,2,9,1,1,2,2,2,23,1,1,1,-97.463471,31.066793,746,751,872,866,736,746,751,872,866,735,544,548,581,601,458,73,73,67,69,62,751,872,866,736,861,1059,1168,1091,1013,1040,4,3,3,2,5,4,3,3,2,5,1,3,0,1,3,25,100,0,50,60
228501,SUL ROSS STATE UNIVERSITY,1,704,1700,1779992,2528.3977272727275,41.411764705882355,25.5535390199637,61.705989110707804,0.623,72.09302325581395,948,539,1487,465,180,645,Sul Ross State University,HWY 90 East,Alpine,TX,79832,48,00362500,1,1,1,7,1,1,2,2,2,33,1,1,1,-103.651469,30.363139,348,328,344,271,240,348,328,344,271,240,201,159,180,140,122,58,48,52,52,51,328,344,271,240,191,650,594,542,473,404,3,5,0,0,2,3,5,0,0,2,0,2,0,0,1,0,40,NA,NA,50
226019,KILGORE JUNIOR COLLEGE DISTRICT,0,3333,3333,1946316,583.9531953195319,100,46.89082723691615,46.89082723691615,0.561,71.16711671167117,2372,961,3333,2372,961,3333,Kilgore College,1100 Broadway,Kilgore,TX,75662-3299,48,00358000,4,2,1,3,1,2,4,2,3,31,1,1,1,-94.871468,32.377821,911,856,868,846,708,911,856,868,846,708,506,494,532,537,432,56,58,61,63,61,856,867,846,708,736,1327,2228,2459,2218,2328,180,178,172,204,223,180,178,172,204,223,68,75,88,75,78,38,42,51,37,35
223427,BLINN COLLEGE DISTRICT,0,6639,11042,7070956,1065.0634131646332,60.12497735917406,23.583531668502005,39.22418386558204,0.373,66.75704172315108,6318,4724,11042,4432,2207,6639,Blinn College,902 College Ave,Brenham,TX,77833-4098,48,00354900,4,2,1,3,1,2,4,2,4,32,1,1,1,-96.40852,30.160457,4119,4149,4650,4166,3141,4119,4149,4650,4166,3141,2099,2224,2376,2220,1694,51,54,51,53,54,4169,4650,4163,3141,3076,9314,9242,9443,7950,7514,2028,3016,2405,2008,1453,2028,3016,2405,2008,1453,1052,1515,1168,869,633,52,50,49,43,44
222992,AUSTIN COMMUNITY COLLEGE,1,5243,25454,6950300,1325.634178905207,20.59794138445824,8.908182683158897,43.24792714421639,0.367,71.0661834827389,11356,14098,25454,3726,1517,5243,Austin Community College District,5930 Middle Fiskville Rd,Austin,TX,78752,48,01201500,1,1,1,5,1,2,3,2,5,11,1,1,1,-97.712505,30.322744,2398,0,0,0,0,2398,0,0,0,0,1397,0,0,0,0,58,NA,NA,NA,NA,2344,2455,2478,2378,2015,10008,10000,9931,8976,7872,2972,0,0,1,0,2972,0,0,1,0,1473,0,0,1,0,50,NA,NA,100,NA
228316,SOUTHWEST TEXAS JUNIOR COLLEGE,1,2177,2218,1697100,779.5590261828204,98.15148782687103,25.278680910357643,25.75476079888528,0.748,100,2218,0,2218,2177,0,2177,Southwest Texas Junior College,2401 Garner Field Rd,Uvalde,TX,78801-6297,48,00361400,4,2,1,3,1,2,4,2,3,33,1,1,1,-99.741237,29.219671,692,608,528,568,529,692,608,528,568,529,465,379,355,398,340,67,62,67,70,64,608,528,568,529,439,2598,2726,2714,2257,2163,465,420,353,427,324,465,420,353,427,324,286,228,203,236,177,62,54,58,55,55
228149,ST. MARY'S UNIVERSITY,1,1134,2300,1562730,1378.068783068783,49.30434782608696,29.084380610412925,58.98948448320082,0.478,64.91458607095927,868,668,1536,494,267,761,St. Mary's University,One Camino Santa Maria,San Antonio,TX,78228,48,00362300,2,1,2,9,1,1,2,2,2,11,1,1,1,-98.562778,29.453244,586,643,638,544,512,586,643,638,544,512,429,485,473,404,362,73,75,74,74,71,643,638,544,512,605,772,753,648,613,706,1,0,2,1,2,1,0,2,1,2,0,0,0,1,1,0,NA,0,100,50
228981,TEXAS LUTHERAN UNIVERSITY,1,1191,1262,704097,591.1813602015113,94.37400950871633,76.83870967741936,81.41935483870968,0.356,39.742489270386265,467,765,1232,463,702,1165,Texas Lutheran University,1000 W. Court St,Seguin,TX,78155-5999,48,00364100,2,1,2,7,1,1,2,2,2,31,1,1,1,-97.982669,29.573261,377,416,364,419,361,377,416,364,419,361,271,297,266,290,236,72,71,73,69,65,416,364,419,361,313,472,479,481,460,384,0,1,0,0,NA,0,1,0,0,NA,0,0,0,0,NA,NA,0,NA,NA,NA
229832,WESTERN TEXAS COLLEGE,1,143,245,278057,1944.4545454545455,58.36734693877551,2.9082774049217,4.982713036404311,0.417,62.93706293706294,245,0,245,90,53,143,Western Texas College,6200 College Ave,Snyder,TX,79549,48,00954900,4,2,1,3,1,2,4,2,2,33,1,1,1,-100.914945,32.678458,268,229,243,240,178,268,229,243,240,178,133,127,118,152,92,50,55,49,63,52,260,243,240,178,142,682,656,603,509,678,128,78,41,38,29,128,78,41,38,29,51,43,18,20,15,40,55,44,53,52
229504,VERNON COLLEGE,1,995,1198,690559.84,694.0299899497487,83.0550918196995,24.7697286532238,29.82325118247449,0.607,75.07537688442211,890,308,1198,747,248,995,Vernon College,4400 College Dr.,Vernon,TX,76384-4092,48,01006000,4,2,1,3,1,2,4,2,2,41,1,1,1,-99.319094,34.159298,320,321,285,276,238,320,321,285,276,238,203,169,125,103,52,63,53,44,37,22,321,284,276,238,169,965,896,606,524,449,183,116,140,132,131,183,116,140,132,131,83,46,54,50,38,45,40,39,38,29
225548,HOWARD PAYNE UNIVERSITY,1,555,555,520957,938.6612612612612,100,41.32539091586002,41.32539091586002,0.482,52.43243243243243,291,264,555,291,264,555,Howard Payne University,1000 Fisk St.,Brownwood,TX,76801-2794,48,00357500,2,1,2,7,1,1,2,2,2,33,1,1,1,-98.985204,31.716467,324,246,248,246,211,324,246,248,246,211,155,121,107,123,110,48,49,43,50,52,246,248,246,211,227,366,383,432,399,372,3,7,3,3,2,3,7,3,3,2,0,3,0,3,1,0,43,0,100,50
417752,MESSENGER COLLEGE INC,0,32,32,20880,652.5,100,66.66666666666666,66.66666666666666,0.738,NA,NA,NA,32,NA,NA,32,Messenger College,"2701 Brown Trail, Suite 408",Bedford,TX,76021-4202,48,03092600,2,1,2,5,1,2,2,2,1,21,1,1,1,-97.161015,32.85076,5,9,6,3,4,5,9,6,3,4,2,8,5,0,2,40,89,83,0,50,9,8,3,4,4,14,8,9,5,6,0,0,0,0,0,0,0,0,0,0,0,0,0,0,0,NA,NA,NA,NA,NA
484048,"BARBER INSTITUTE OF TEXAS, LLC.",0,NA,NA,0,NA,NA,NA,NA,0.981,NA,NA,NA,NA,NA,NA,NA,Barber Institute of Texas,2430 South High Street Ste B4,Longview,TX,75602-3456,48,04229000,9,3,3,2,1,2,6,2,1,13,1,1,1,-94.732635,32.46297,3,2,1,1,4,3,2,1,1,4,3,2,1,1,4,100,100,100,100,100,NA,NA,NA,NA,NA,NA,NA,NA,NA,NA,NA,NA,NA,NA,0,NA,NA,NA,NA,0,NA,NA,NA,NA,0,NA,NA,NA,NA,NA
225201,"HALLMARK UNIVERSITY, INC.",1,268,498,670533,2501.9888059701493,53.81526104417671,22.98456260720412,42.710120068610635,0.552,64.55223880597015,288,210,498,173,95,268,Hallmark University,10401 IH 10 W,San Antonio,TX,78230-1736,48,01050900,2,1,2,7,1,1,2,2,1,11,1,1,1,-98.568618,29.538442,16,58,27,42,93,16,58,27,42,93,10,40,13,30,60,63,69,48,71,65,NA,NA,NA,NA,NA,NA,NA,NA,NA,NA,NA,NA,NA,NA,NA,NA,NA,NA,NA,NA,NA,NA,NA,NA,NA,NA,NA,NA,NA,NA
491066,THE STRAND INSTITUTE OF BEAUTY & ESTHETICS,0,31,31,38506.17,1242.134516129032,100,48.4375,48.4375,NA,NA,NA,NA,31,NA,NA,31,Strand Institute of Beauty & Esthetics,1018 Us Hwy 181,Portland,TX,78374,48,04274500,9,3,3,2,1,2,6,2,1,21,1,1,1,-97.319593,27.878924,NA,0,4,10,20,NA,0,4,10,20,NA,0,4,3,18,NA,NA,100,30,90,NA,NA,NA,NA,NA,NA,NA,NA,NA,NA,NA,NA,2,11,14,NA,NA,2,11,14,NA,NA,2,1,13,NA,NA,100,9,93
223506,BRAZOSPORT COLLEGE,1,549,793,614362,1119.056466302368,69.23076923076923,8.744823192099394,12.631411277476904,0.277,80.51001821493625,528,265,793,442,107,549,Brazosport College,500 College Dr,Lake Jackson,TX,77566,48,00728700,1,1,1,5,1,2,3,2,2,23,1,1,1,-95.40934,29.048604,0,0,0,0,0,0,0,0,0,0,0,0,0,0,0,NA,NA,NA,NA,NA,298,245,245,193,246,1194,1263,1265,1172,1345,0,0,0,0,0,0,0,0,0,0,0,0,0,0,0,NA,NA,NA,NA,NA
493743,"HOUSTON BARBER SCHOOL, LLC",0,52,64,23400,450,81.25,24.644549763033176,30.33175355450237,NA,100,64,0,64,52,0,52,Houston Barber School,313 Rankin Road,Houston,TX,77073-4400,48,04280900,9,3,3,2,1,2,6,2,1,21,1,1,1,-95.415514,29.966414,NA,NA,25,64,79,NA,NA,25,64,79,NA,NA,19,44,65,NA,NA,76,69,82,NA,NA,NA,NA,NA,NA,NA,NA,NA,NA,NA,NA,15,32,66,NA,NA,15,32,66,NA,NA,8,15,33,NA,NA,53,47,50
229425,UCAS UNIVERSITY OF COSMETOLOGY ARTS & SCIENCES,0,257,257,510713,1987.2101167315177,100,86.82432432432432,86.82432432432432,0.867,100,87,NA,87,87,NA,87,UCAS University of Cosmetology Arts & Sciences-McAllen,8401 N 10th St,McAllen,TX,78504,48,02285900,9,3,3,2,1,2,6,2,1,12,1,1,1,-98.21787,26.279439,20,24,24,24,23,20,24,24,24,23,16,16,16,16,16,80,67,67,67,70,NA,NA,NA,NA,NA,NA,NA,NA,NA,NA,13,13,13,13,13,13,13,13,13,13,9,9,9,9,9,69,69,69,69,69
495129,AUSTIN CAREER INSTITUTE,0,29,29,11065,381.55172413793105,100,NA,NA,NA,100,29,0,29,29,0,29,Austin Career Institute,8711 Burnet Road,Austin,TX,78757-7066,48,04282500,9,3,3,2,1,2,6,2,1,11,1,1,1,-97.726714,30.36933,NA,NA,NA,32,45,NA,NA,NA,32,45,NA,NA,NA,30,39,NA,NA,NA,94,87,NA,NA,NA,NA,NA,NA,NA,NA,NA,NA,NA,NA,NA,NA,NA,NA,NA,NA,NA,NA,NA,NA,NA,NA,NA,NA,NA,NA,NA,NA
491835,SAN ANTONIO EDUCATIONAL GROUP LLC,0,65,66,21234.31,326.68169230769234,98.48484848484848,50.78125,51.5625,0.265,52.307692307692314,34,32,66,34,31,65,Salon Professional Academy of San Antonio,16640 San Pedro Avenue,San Antonio,TX,78232-2242,48,04271700,9,3,3,2,1,2,6,2,1,11,1,1,1,-98.47,29.59369,NA,37,20,26,47,NA,37,20,26,47,NA,30,17,24,38,NA,81,85,92,81,NA,NA,NA,NA,NA,NA,NA,NA,NA,NA,NA,NA,NA,NA,NA,NA,NA,NA,NA,NA,NA,NA,NA,NA,NA,NA,NA,NA,NA,NA
490425,"AWSCI,LLC",0,74,101,74000,1000,73.26732673267327,34.57943925233645,47.19626168224299,0.261,47.2972972972973,39,62,101,35,39,74,Ann Webb Skin Institute,11701 Jollyville Road,Austin,TX,78759-3936,48,04265400,9,3,3,2,1,2,6,2,1,11,1,1,1,-97.751895,30.419687,19,44,36,44,45,19,42,36,44,45,15,32,32,41,41,79,76,89,93,91,NA,NA,NA,NA,NA,NA,NA,NA,NA,NA,NA,NA,NA,NA,NA,NA,NA,NA,NA,NA,NA,NA,NA,NA,NA,NA,NA,NA,NA,NA
225876,JACKSONVILLE COLLEGE,0,133,226,141902,1066.9323308270675,58.849557522123895,10.821806346623273,18.38893409275834,0.789,100,226,0,226,133,0,133,Jacksonville College-Main Campus,105 B J Albritton Dr,Jacksonville,TX,75766-4759,48,00357900,5,2,2,4,1,2,4,2,1,32,1,1,1,-95.281311,31.965846,141,94,113,110,119,141,94,113,110,119,70,45,56,50,70,50,48,50,45,59,94,113,113,119,93,277,280,284,170,269,3,0,12,6,6,3,0,12,6,6,0,0,2,2,1,0,NA,17,33,17
491251,WEISER RESOLUTION CSFW LP,0,63,73,47260,750.1587301587301,86.3013698630137,45.65217391304348,52.89855072463768,NA,46.03174603174603,32,41,73,29,34,63,The Culinary School of Fort Worth,6550 Camp Bowie Blvd #110,Fort Worth,TX,76116,48,04276400,9,3,3,2,1,2,6,2,1,11,1,1,1,-97.428672,32.724044,NA,0,30,47,38,NA,0,30,47,38,NA,0,21,38,24,NA,NA,70,81,63,NA,NA,NA,NA,NA,NA,NA,NA,NA,NA,NA,NA,NA,NA,NA,NA,NA,NA,NA,NA,NA,NA,NA,NA,NA,NA,NA,NA,NA,NA
484905,UNIVERSITY OF NORTH TEXAS AT DALLAS,1,3823,4214,1080922,282.7418257912634,90.72140484100618,84.72960992907801,93.395390070922,0.698,62.18597063621534,1890,1546,3436,1906,1159,3065,University of North Texas at Dallas,7300 University Hills Drive,Dallas,TX,75241,48,04242100,1,1,1,9,1,1,2,2,2,11,1,1,1,-96.803446,32.659588,256,290,352,390,262,256,290,352,390,262,196,213,247,276,183,77,73,70,71,70,290,352,791,262,291,884,949,1945,1007,1078,24,26,13,34,65,24,26,13,34,65,14,11,10,12,27,58,42,77,35,42
494719,BARBERING VENTURES LLC,0,18,18,47658,2647.6666666666665,100,94.73684210526316,94.73684210526316,NA,100,18,0,18,18,0,18,Tonsorial Arts Barber College,2831 New Boston Road,Texarkana,TX,75501-3264,48,04286500,9,3,3,2,1,2,6,2,1,13,1,1,1,-94.079302,33.435351,NA,NA,1,13,6,NA,NA,1,13,6,NA,NA,1,12,6,NA,NA,100,92,100,NA,NA,NA,NA,NA,NA,NA,NA,NA,NA,NA,NA,0,8,5,NA,NA,0,8,5,NA,NA,0,3,2,NA,NA,NA,38,40
224527,EAST TEXAS BAPTIST UNIVERSITY,0,884,1147,1030162,1165.341628959276,77.07061900610287,51.48514851485149,66.8025626092021,0.448,NA,505,569,1074,373,501,NA,East Texas Baptist University,One Tiger Drive,Marshall,TX,75670-1498,48,00356400,2,1,2,7,1,1,2,2,2,32,1,1,1,-94.374488,32.557847,346,419,400,345,403,346,419,400,345,403,191,266,249,209,247,55,63,62,61,61,419,400,345,403,403,649,615,562,675,674,0,1,3,5,0,0,1,3,5,0,0,0,0,1,0,NA,0,0,20,NA
224891,FRANK PHILLIPS COLLEGE,1,218,218,488436,2240.532110091743,100,12.18557853549469,12.18557853549469,0.536,100,218,NA,218,218,0,218,Frank Phillips College,1301 W. Roosevelt St.,Borger,TX,79008-5118,48,00356800,4,2,1,3,1,2,4,2,2,32,1,1,1,-101.406005,35.657778,187,207,160,159,209,187,207,160,159,208,96,128,102,98,114,51,62,64,62,55,207,160,159,209,218,707,760,740,380,394,4,6,66,29,46,4,6,66,29,46,3,3,33,14,23,75,50,50,48,50
223922,CLARENDON COLLEGE,0,241,241,442844,1837.5269709543568,100,6.3841059602649,6.3841059602649,0.504,81.32780082987551,196,45,241,196,45,241,Clarendon College,1122 College Drive,Clarendon,TX,79226,48,00355400,4,2,1,3,1,2,4,2,2,43,1,1,1,-100.902421,34.944558,222,258,242,204,309,222,257,242,204,309,107,132,117,107,162,48,51,48,52,52,258,220,204,343,309,772,820,803,1062,938,218,347,466,470,619,218,347,466,470,619,114,173,224,232,327,52,50,48,49,53
493804,DELUXE BARBER COLLEGE,0,38,48,38000,1000,79.16666666666666,59.375,75,NA,NA,45,0,NA,35,0,NA,Deluxe Barber College,12636 Nacogdoches Road,San Antonio,TX,78217-2118,48,04283200,9,3,3,2,1,2,6,2,1,11,1,1,1,-98.400819,29.554971,NA,NA,30,24,17,NA,NA,30,24,17,NA,NA,23,18,17,NA,NA,77,75,100,NA,NA,NA,NA,NA,NA,NA,NA,NA,NA,NA,NA,NA,NA,NA,NA,NA,NA,NA,NA,NA,NA,NA,NA,NA,NA,NA,NA,NA,NA
223001,AUSTIN PRESBYTERIAN THEOLOGICAL SEMINAR,0,40,71,34916,872.9,56.33802816901409,23.809523809523807,42.26190476190476,NA,NA,0,0,0,0,0,0,Austin Presbyterian Theological Seminary,100 E 27th St,Austin,TX,78705-5711,48,00354400,2,1,2,9,2,1,1,2,1,11,1,1,1,-97.736958,30.29201,NA,NA,NA,NA,NA,NA,NA,NA,NA,NA,NA,NA,NA,NA,NA,NA,NA,NA,NA,NA,NA,NA,NA,NA,NA,NA,NA,NA,NA,NA,NA,NA,NA,NA,NA,NA,NA,NA,NA,NA,NA,NA,NA,NA,NA,NA,NA,NA,NA,NA
228468,SOUTHWESTERN ADVENTIST UNIVERSITY,1,495,495,400581,809.2545454545455,100,53.92156862745098,53.92156862745098,0.546,NA,181,NA,NA,181,NA,NA,Southwestern Adventist University,100 W Hillcrest,Keene,TX,76059,48,00361900,2,1,2,7,1,1,2,2,1,31,1,1,1,-97.32702,32.397617,134,128,127,107,137,134,128,127,107,137,109,82,86,84,100,81,64,68,79,73,128,127,107,137,127,197,243,168,230,195,0,0,0,NA,1,0,0,0,NA,1,0,0,0,NA,1,NA,NA,NA,NA,100
443322,"VALLEY GRANDE INSTITUTE FOR ACADEMIC STUDIES, INC.",0,147,160,99500,676.8707482993198,91.875,36.386138613861384,39.6039603960396,0.745,100,160,NA,NA,147,0,147,Valley Grande Institute for Academic Studies,345 S. Texas Blvd.,Weslaco,TX,78596,48,03612400,8,3,2,2,1,2,6,2,1,21,1,1,1,-97.990391,26.158256,109,137,74,32,23,109,137,74,32,20,83,104,48,24,20,76,76,65,75,100,NA,NA,NA,NA,NA,NA,NA,NA,NA,NA,NA,NA,NA,NA,NA,NA,NA,NA,NA,NA,NA,NA,NA,NA,NA,NA,NA,NA,NA,NA
222938,THE ART INSTITUTE OF HOUSTON,0,596,1466,1248102.54,2094.13177852349,40.65484311050477,46.05873261205564,113.29211746522412,0.719,74.16107382550335,854,612,1466,442,154,596,The Art Institute of Houston,4140 Southwest Freeway,Houston,TX,77027-9625,48,02117100,3,1,3,5,1,2,2,2,1,11,1,1,1,-95.445766,29.73025,86,60,47,50,56,86,60,46,50,56,53,33,25,26,18,62,55,54,52,32,91,66,67,74,26,290,273,178,161,123,74,29,38,49,36,74,29,38,49,36,29,8,15,17,9,39,28,39,35,25
226675,COVENANT SCHOOL OF NURSING,0,277,429,494482.98,1785.137111913357,64.56876456876456,63.824884792626726,98.84792626728112,NA,39.35018050541516,160,269,429,109,168,277,Covenant School of Nursing and Allied Health,1919 Frankford Ave.,Lubbock,TX,79407,48,00661200,5,2,2,4,1,2,6,2,1,11,1,1,1,-101.937872,33.5757,NA,NA,NA,NA,NA,NA,NA,NA,NA,NA,NA,NA,NA,NA,NA,NA,NA,NA,NA,NA,NA,NA,NA,NA,NA,NA,NA,NA,NA,NA,NA,NA,NA,NA,NA,NA,NA,NA,NA,NA,NA,NA,NA,NA,NA,NA,NA,NA,NA,NA
226152,TEXAS A&M INTERNATIONAL UNIVERSITY,1,2686,13808,4750878,1768.7557706626956,19.452491309385863,28.240984123646307,145.17926611292188,0.65,86.29600626468284,10386,2424,12810,2204,350,2554,Texas A & M International University,5201 University Blvd,Laredo,TX,78041-1900,48,00965100,1,1,1,9,1,1,2,2,3,11,1,1,1,-99.436043,27.571172,1010,1116,1323,1359,1228,1010,1116,1323,1359,1228,768,860,1040,1009,910,76,77,79,74,74,1116,1323,1359,1228,1119,1672,1897,1880,1946,1817,16,32,33,18,35,16,32,33,18,35,8,22,23,9,23,50,69,70,50,66
224147,TEXAS A&M UNIVERSITY - CORPUS CHRISTI,1,5992,8708,6654384,1110.5447263017356,68.81028938906752,42.05207382974244,61.11306056565373,0.447,58.20224719101124,4040,3806,7846,3108,2232,5340,Texas A & M University-Corpus Christi,6300 Ocean Dr.,Corpus Christi,TX,78412-5503,48,01116100,1,1,1,9,1,1,2,2,4,11,1,1,1,-97.32395,27.713723,2380,2224,1887,1744,1395,2380,2223,1887,1744,1395,1344,1279,1138,1001,773,56,58,60,57,55,2224,1887,1744,1448,1716,3211,2848,2698,2269,2615,30,43,163,171,160,30,43,163,171,160,15,25,88,82,72,50,58,54,48,45
494694,BTGRAD INC DBA TEXAS HEALTHTECH INSTITUTE,0,22,39,46607,2118.5,56.41025641025641,84.61538461538461,150,NA,100,39,0,39,22,0,22,Texas Healthtech Institute,9615 College Street,Beaumont,TX,77707-2604,48,04283100,9,3,3,1,1,2,6,2,1,12,1,1,1,-94.206012,30.064641,NA,NA,NA,NA,NA,NA,NA,NA,NA,NA,NA,NA,NA,NA,NA,NA,NA,NA,NA,NA,NA,NA,NA,NA,NA,NA,NA,NA,NA,NA,NA,NA,NA,NA,NA,NA,NA,NA,NA,NA,NA,NA,NA,NA,NA,NA,NA,NA,NA,NA
228282,"EDCO SYSTEMS, L.P.",0,125,125,191077,1528.616,100,97.65625,97.65625,0.932,95.2,119,6,125,119,6,125,Southwest School of Business and Technical Careers-San Antonio,229 SW Military Drive,San Antonio,TX,78221-0138,48,02218300,9,3,3,2,1,2,6,2,1,11,1,1,1,-98.49583,29.357965,NA,NA,NA,21,18,NA,NA,NA,21,18,NA,NA,NA,17,15,NA,NA,NA,81,83,NA,NA,NA,NA,NA,NA,NA,NA,NA,NA,NA,NA,NA,NA,NA,NA,NA,NA,NA,NA,NA,NA,NA,NA,NA,NA,NA,NA,NA,NA
247825,"INSTITUTE FOR CHRISTIAN STUDIES, AUSTIN TEXAS",0,6,6,5068,844.6666666666666,100,13.636363636363637,13.636363636363637,NA,NA,NA,NA,NA,NA,NA,NA,Austin Graduate School of Theology,7640 Guadalupe St,Austin,TX,78752,48,02362800,2,1,2,7,1,1,2,2,1,11,1,1,1,-97.711751,30.343842,NA,NA,NA,NA,NA,NA,NA,NA,NA,NA,NA,NA,NA,NA,NA,NA,NA,NA,NA,NA,NA,NA,NA,NA,NA,NA,NA,NA,NA,NA,NA,NA,NA,NA,NA,NA,NA,NA,NA,NA,NA,NA,NA,NA,NA,NA,NA,NA,NA,NA
228909,UNIVERSITY OF NORTH TEXAS HEALTH SCIENCE CENTER,0,267,1716,343849,1287.8239700374531,15.55944055944056,11.033057851239668,70.9090909090909,NA,NA,0,0,0,0,0,0,University of North Texas Health Science Center,3500 Camp Bowie Blvd,Fort Worth,TX,76107-2699,48,00976800,1,1,1,9,2,1,1,2,2,11,1,1,1,-97.369138,32.749907,NA,NA,NA,NA,NA,NA,NA,NA,NA,NA,NA,NA,NA,NA,NA,NA,NA,NA,NA,NA,NA,NA,NA,NA,NA,NA,NA,NA,NA,NA,NA,NA,NA,NA,NA,NA,NA,NA,NA,NA,NA,NA,NA,NA,NA,NA,NA,NA,NA,NA
443146,JAY'S TECHNICAL INSTITUTE,0,45,45,51600,1146.6666666666667,100,22.5,22.5,0.885,100,45,0,45,45,0,45,Jay's Technical Institute,11910 Fondren Meadow,Houston,TX,77071,48,03680300,9,3,3,2,1,2,6,2,1,11,1,1,1,-95.525281,29.64877,7,8,6,12,14,7,4,4,12,14,7,2,2,10,6,100,50,50,83,43,NA,NA,NA,NA,NA,NA,NA,NA,NA,NA,9,3,0,3,NA,9,3,0,3,NA,9,3,0,3,NA,100,100,NA,100,NA
224712,THE EPISCOPAL THEOLOGICAL SEMINARY OF THE SOUTHWEST,0,0,135,0,NA,0,0,108.87096774193547,NA,NA,0,0,0,0,0,0,Episcopal Theological Seminary of the Southwest,501 E. 32nd St.,Austin,TX,78705,48,00356600,2,1,2,7,2,1,1,2,1,11,1,1,1,-97.732652,30.293092,NA,NA,NA,NA,NA,NA,NA,NA,NA,NA,NA,NA,NA,NA,NA,NA,NA,NA,NA,NA,NA,NA,NA,NA,NA,NA,NA,NA,NA,NA,NA,NA,NA,NA,NA,NA,NA,NA,NA,NA,NA,NA,NA,NA,NA,NA,NA,NA,NA,NA
483559,BELLA COSMETOLOGY SCHOOL LLC,0,48,48,72336,1507,100,33.33333333333333,33.33333333333333,0.674,NA,38,NA,48,NA,NA,48,Bella Cosmetology and Barber College,5015A Wesley,Greenville,TX,75402,48,04235900,9,3,3,2,1,2,6,2,1,32,1,1,1,-96.107802,33.119725,16,35,28,40,15,16,35,28,40,15,13,30,20,8,5,81,86,71,20,33,NA,NA,NA,NA,NA,NA,NA,NA,NA,NA,NA,3,8,0,6,NA,3,8,0,6,NA,0,2,0,3,NA,0,25,NA,50
224013,BK COSMO COLLEGE OF COSMETOLOGY,0,16,16,38223.04,2388.94,100,NA,NA,0.667,NA,16,0,16,NA,0,16,BK Cosmo College of Cosmetology,320 W. Water Street Suite E,Kerrville,TX,78028-4312,48,02058600,9,3,3,2,1,2,6,2,1,33,1,1,1,-99.15037,30.055075,1,1,NA,8,8,1,1,NA,8,8,1,1,NA,4,8,100,100,NA,50,100,NA,NA,NA,NA,NA,NA,NA,NA,NA,NA,0,NA,NA,NA,NA,0,NA,NA,NA,NA,0,NA,NA,NA,NA,NA,NA,NA,NA,NA
434283,PATHWAY VOCATIONAL ACADEMY LLC,0,NA,NA,0,NA,NA,NA,NA,1,NA,NA,NA,NA,NA,NA,NA,Pathway Vocational Academy,"3141 College, Suite A10",Beaumont,TX,77701-4650,48,03277300,9,3,3,2,1,2,6,2,1,12,1,1,1,-94.122709,30.067103,13,14,12,6,20,13,14,12,6,20,6,5,6,6,17,46,36,50,100,85,NA,NA,NA,NA,NA,NA,NA,NA,NA,NA,NA,NA,NA,NA,0,NA,NA,NA,NA,0,NA,NA,NA,NA,0,NA,NA,NA,NA,NA
461388,DIAMONDS COSMETOLOGY COLLEGE,0,45,44,76696,1704.3555555555556,102.27272727272728,51.72413793103448,50.57471264367817,0.787,75.55555555555556,34,10,44,34,11,45,Diamonds Cosmetology College,3321 Loy Lake Rd,Sherman,TX,75090-2657,48,04169100,9,3,3,2,1,2,6,2,1,13,1,1,1,-96.606125,33.673442,18,13,23,13,8,18,13,23,13,8,7,5,14,8,6,39,38,61,62,75,NA,NA,NA,NA,NA,NA,NA,NA,NA,NA,NA,NA,NA,NA,NA,NA,NA,NA,NA,NA,NA,NA,NA,NA,NA,NA,NA,NA,NA,NA
451565,"PMTX AUSTIN, LLC",0,123,123,104384.89,848.6576422764227,100,53.94736842105263,53.94736842105263,0.542,64.22764227642277,79,44,123,79,44,123,Paul Mitchell the School-Austin,9503 Research Blvd Building 3 Suite 310,Austin,TX,78759,48,04125400,9,3,3,2,1,2,6,2,1,11,1,1,1,-97.740293,30.386375,30,28,24,21,23,30,28,24,21,23,24,21,16,16,16,80,75,67,76,70,NA,NA,NA,NA,NA,NA,NA,NA,NA,NA,2,8,2,1,NA,2,8,2,1,NA,2,3,2,1,NA,100,38,100,100,NA
441742,"CONCORDE CAREER COLLEGES, INC.",0,662,1043,589842,891,63.47075743048898,45.249487354750514,71.29186602870813,0.708,89.57703927492447,923,120,1043,593,69,662,Concorde Career College-Grand Prairie,305 W. Interstate 20,Grand Prairie,TX,75052-3831,48,03542300,6,2,3,3,1,2,4,2,1,21,1,1,1,-97.05498,32.675369,231,134,296,206,164,231,134,296,206,164,167,100,195,173,85,72,75,66,84,52,NA,NA,NA,NA,NA,NA,NA,NA,NA,NA,NA,NA,0,26,21,NA,NA,0,26,21,NA,NA,0,19,8,NA,NA,NA,73,38
225627,UNIVERSITY OF THE INCARNATE WORD,1,4577,4878,2609844,570.2084334717064,93.82943829438294,41.799086757990864,44.54794520547945,0.462,53.64635364635365,1698,1513,3211,1611,1392,3003,University of the Incarnate Word,4301 Broadway,San Antonio,TX,78209,48,00357800,2,1,2,9,1,1,2,2,3,11,1,1,1,-98.46583,29.46708,728,712,816,1006,916,728,712,816,1006,916,552,526,595,754,673,76,74,73,75,73,790,816,1006,916,963,1496,1546,1792,1562,1426,11,14,6,4,6,11,14,6,4,6,5,7,2,0,2,45,50,33,0,33
222886,ARLINGTON CAREER INSTITUTE,0,184,184,224896,1222.2608695652175,100,47.179487179487175,47.179487179487175,0.487,NA,NA,NA,184,NA,NA,184,Arlington Career Institute,901 Ave K,Grand Prairie,TX,75050-2636,48,02521200,6,2,3,4,1,2,6,2,1,21,1,1,1,-97.052772,32.77244,140,136,215,220,234,140,136,215,220,234,103,99,154,161,169,74,73,72,73,72,NA,NA,NA,NA,NA,NA,NA,NA,NA,NA,34,23,35,40,24,34,23,35,40,24,24,17,25,29,18,71,74,71,73,75
444398,BAPTIST UNIVERSITY OF THE AMERICAS,1,71,71,61112,860.7323943661971,100,40.340909090909086,40.340909090909086,0.533,66.19718309859155,47,24,71,47,24,71,Baptist University of the Americas,7838 Barlite Blvd.,San Antonio,TX,78224-1364,48,03733300,2,1,2,5,1,2,2,2,1,11,1,1,1,-98.546081,29.34998,19,11,9,9,9,19,11,9,9,9,6,8,7,2,5,32,73,78,22,56,11,9,9,9,8,37,29,28,18,32,8,8,5,2,4,8,8,5,2,4,6,1,3,1,3,75,13,60,50,75
444565,CULINARY INSTITUTE LENOTRE,0,236,239156,341090,1445.2966101694915,0.09868035926340966,67.42857142857143,68330.28571428572,0.654,69.0677966101695,169559,69597,239156,163,73,236,Culinary Institute Inc,7070 Allensby,Houston,TX,77022-4322,48,03723300,6,2,3,3,1,2,4,2,1,11,1,1,1,-95.378633,29.823623,174,37,35,118,77,173,37,35,118,77,95,30,30,100,19,55,81,86,85,25,36,35,61,77,1,59,59,66,112,55,NA,30,26,70,0,NA,30,26,70,0,NA,26,21,58,0,NA,87,81,83,NA
458034,HOUSTON INTERNATIONAL COLLEGE CARDIOTECH ULTRASOUND SCHOOL,0,47,47,80773,1718.5744680851064,100,51.08695652173913,51.08695652173913,0.806,53.191489361702125,25,22,47,25,22,47,Houston International College Cardiotech Ultrasound School,12135 Bissonnet Ste E,Houston,TX,77099,48,04138500,6,2,3,4,1,2,4,2,1,11,1,1,1,-95.592909,29.675203,14,9,5,3,4,14,9,5,3,4,13,9,5,3,4,93,100,100,100,100,9,5,3,4,18,25,17,15,24,32,2,2,1,NA,NA,2,2,1,NA,NA,1,2,1,NA,NA,50,100,100,NA,NA
444556,AUGUSTE ESCOFFIER SCHOOL OF CULINARY ARTS,0,408,408,574610,1408.3578431372548,100,52.307692307692314,52.307692307692314,0.548,67.8921568627451,277,131,408,277,131,408,Auguste Escoffier School of Culinary Arts-Austin,6020-B Dillard Circle,Austin,TX,78752,48,03727600,6,2,3,3,1,2,4,2,1,11,1,1,1,-97.717865,30.326455,139,130,121,176,174,139,130,121,176,173,94,87,82,117,102,68,67,68,66,59,NA,NA,NA,NA,NA,NA,NA,NA,NA,NA,NA,NA,NA,NA,NA,NA,NA,NA,NA,NA,NA,NA,NA,NA,NA,NA,NA,NA,NA,NA
480888,CYBERTEX INSTITUTE OF TECHNOLOGY,0,134,270,231048.16,1724.24,49.629629629629626,29.97762863534675,60.40268456375839,0.894,100,270,0,270,134,0,134,CyberTex Institute of Technology,"6300 La Calma Dr. Suite ,350",Austin,TX,78752,48,04187800,9,3,3,2,1,2,6,2,1,11,1,1,1,-97.70303,30.324403,52,37,97,89,95,52,37,97,89,95,42,31,82,85,82,81,84,85,96,86,NA,NA,NA,NA,NA,NA,NA,NA,NA,NA,NA,NA,NA,NA,NA,NA,NA,NA,NA,NA,NA,NA,NA,NA,NA,NA,NA,NA,NA,NA
227225,NORTHEAST TEXAS COMMUNITY COLLEGE,1,1375,2434,530634,385.91563636363634,56.491372226787185,30.05464480874317,53.20218579234973,0.615,79.27272727272727,1840,594,2434,1090,285,1375,Northeast Texas Community College,2886 FM 1735,Mount Pleasant,TX,75455,48,02315400,4,2,1,3,1,2,4,2,2,42,1,1,1,-94.881855,33.104931,484,440,478,437,375,484,440,478,437,375,307,238,292,250,202,63,54,61,57,54,440,478,437,375,422,742,751,678,611,617,141,102,90,96,118,141,102,90,96,118,58,43,32,33,36,41,42,36,34,31
228796,THE UNIVERSITY OF TEXAS AT EL PASO,1,11426,20172,12742904,1115.255032382286,56.64287130676185,38.2383454368997,67.50778086409423,0.652,80.33382425135002,13522,4572,18094,8182,2003,10185,The University of Texas at El Paso,500 W. University Ave,El Paso,TX,79968-0691,48,00366100,1,1,1,9,1,1,2,2,5,11,1,1,1,-106.504098,31.77015,3006,3084,2896,3067,2942,3006,3084,2896,3067,2942,2222,2250,2183,2368,2056,74,73,75,77,70,3084,2896,3067,2942,2717,5598,5434,5362,4907,4643,436,505,526,549,402,436,505,526,549,402,199,246,266,314,208,46,49,51,57,52
227331,OUR LADY OF THE LAKE UNIVERSITY,1,1302,1393,1919740,1474.4546850998463,93.46733668341707,34.47180301826847,36.88112258406143,0.645,69.75717439293598,632,352,984,632,274,906,Our Lady of the Lake University,411 SW 24th St.,San Antonio,TX,78207-4689,48,00359800,2,1,2,9,1,1,2,2,2,11,1,1,1,-98.54365,29.426194,213,337,373,330,295,213,337,373,330,295,130,230,235,215,166,61,68,63,65,56,337,373,330,295,249,520,552,475,415,406,3,1,1,0,0,3,1,1,0,0,0,1,0,0,0,0,100,0,NA,NA
227526,PRAIRIE VIEW A&M UNIVERSITY,1,7152,9800,10666624,1491.4183445190156,72.9795918367347,67.69522006625651,92.75911026975864,0.705,69.53298739807265,5881,3145,9026,4690,2055,6745,Prairie View A & M University,FM 1098 Road & University Drive,Prairie View,TX,77446,48,00363000,1,1,1,9,1,1,2,1,3,32,1,1,1,-95.989475,30.092425,1823,2043,2176,1687,1718,1821,2043,2175,1687,1718,1290,1503,1442,1250,1284,71,74,66,74,75,2047,2176,1687,1807,1754,2598,2696,2158,2344,2373,16,8,1,40,50,16,8,1,40,50,15,4,0,5,8,94,50,0,13,16
246415,UCAS UNIVERSITY OF COSMETOLOGY ARTS & SCIENCES,0,25,25,74644.83,2985.7932,100,25.773195876288657,25.773195876288657,NA,100,25,0,25,25,0,25,UCAS University of Cosmetology Arts & Sciences-San Antonio 410,"4522 Fredericksburg Rd, A-85",San Antonio,TX,78201,48,02326000,9,3,3,2,1,2,6,2,1,21,1,1,1,-98.551137,29.493246,4,4,4,4,4,4,4,4,4,4,2,2,2,2,2,50,50,50,50,50,NA,NA,NA,NA,NA,NA,NA,NA,NA,NA,25,25,25,25,25,25,25,25,25,25,10,10,10,10,10,40,40,40,40,40
484136,YAHWEH BEAUTY ACADEMY,0,32,32,72254,2257.9375,100,56.14035087719298,56.14035087719298,0.326,68.42105263157895,13,6,19,13,6,19,Yahweh Beauty Academy,431 North 38th Street,Killeen,TX,76543-4153,48,04231300,9,3,3,2,1,2,6,2,1,12,1,1,1,-97.700269,31.112893,4,14,34,11,21,3,11,34,11,21,1,10,11,11,8,33,91,32,100,38,NA,NA,NA,NA,NA,NA,NA,NA,NA,NA,NA,NA,NA,NA,NA,NA,NA,NA,NA,NA,NA,NA,NA,NA,NA,NA,NA,NA,NA,NA
247834,COLLIN COUNTY COMMUNITY COLLEGE DISTRICT,0,6745,15501,5395456,799.9193476649369,43.513321721179274,13.972035214914552,32.1097876747799,0.294,60.489251297257226,4756,10745,15501,4080,2665,6745,Collin County Community College District,3452 Spur 399,McKinney,TX,75069,48,02361400,1,1,1,5,1,2,3,2,5,22,1,1,1,-96.63894,33.16241,3125,3245,0,0,0,3125,3243,0,0,0,2074,2155,0,0,0,66,66,NA,NA,NA,3252,3456,3462,3295,3273,12081,13326,13594,13527,11961,2342,2482,0,0,0,2342,2480,0,0,0,1241,1294,0,0,0,53,52,NA,NA,NA
448196,"TEXAS HEALTH SCHOOL, L.P.",0,86,86,98700,1147.6744186046512,100,39.44954128440367,39.44954128440367,0.312,96.51162790697676,83,NA,86,83,NA,86,Texas Health School,11511 Katy Fwy Ste 200,Houston,TX,77079,48,03987300,9,3,3,2,1,2,6,2,1,11,1,1,1,-95.586269,29.783709,27,15,14,8,31,27,15,14,8,31,22,13,12,7,27,81,87,86,88,87,NA,NA,NA,NA,NA,NA,NA,NA,NA,NA,2,0,4,10,12,2,0,4,10,12,2,0,2,7,11,100,NA,50,70,92
116350,"INTERNATIONAL SCHOOL OF COSMETOLOGY, INC.",0,198,198,272633,1376.9343434343434,100,61.6822429906542,61.6822429906542,0.433,62.121212121212125,123,75,198,123,75,198,International School of Cosmetology,464 N. Fairfax Ave,Los Angeles,CA,90036,6,02255400,9,3,3,2,1,2,6,2,1,11,1,1,1,-118.361176,34.080053,66,23,20,17,9,66,23,20,17,9,49,16,12,8,5,74,70,60,47,56,NA,NA,NA,NA,NA,NA,NA,NA,NA,NA,NA,NA,NA,NA,NA,NA,NA,NA,NA,NA,NA,NA,NA,NA,NA,NA,NA,NA,NA,NA
246345,HOUSTON GRADUATE SCHOOL OF THEOLOGY,0,10,134,21242,2124.2,7.462686567164178,6.578947368421052,88.1578947368421,NA,NA,0,0,0,0,0,0,Houston Graduate School of Theology,4300C West Bellfort,Houston,TX,77035-3602,48,02320200,2,1,2,9,2,1,1,2,1,11,1,1,1,-95.448846,29.673594,NA,NA,NA,NA,NA,NA,NA,NA,NA,NA,NA,NA,NA,NA,NA,NA,NA,NA,NA,NA,NA,NA,NA,NA,NA,NA,NA,NA,NA,NA,NA,NA,NA,NA,NA,NA,NA,NA,NA,NA,NA,NA,NA,NA,NA,NA,NA,NA,NA,NA
228185,SOUTH TEXAS BARBER COLLEGE INC.,0,17,22,19200,1129.4117647058824,77.27272727272727,25.75757575757576,33.33333333333333,0.69,100,22,0,22,17,0,17,South Texas Barber College Inc,3917 Ayers,Corpus Christi,TX,78415,48,03922300,9,3,3,2,1,2,6,2,1,11,1,1,1,-97.417156,27.754868,19,6,12,7,5,19,6,12,7,5,10,6,12,6,5,53,100,100,86,100,NA,NA,NA,NA,NA,NA,NA,NA,NA,NA,0,0,NA,NA,NA,0,0,NA,NA,NA,0,0,NA,NA,NA,NA,NA,NA,NA,NA
227289,OBLATE SCHOOL OF THEOLOGY,0,0,0,0,NA,NA,0,0,NA,NA,NA,NA,NA,NA,NA,NA,Oblate School of Theology,285 Oblate Dr,San Antonio,TX,78216-6693,48,00359500,2,1,2,9,2,1,1,2,1,11,1,1,1,-98.503113,29.505434,NA,NA,NA,NA,NA,NA,NA,NA,NA,NA,NA,NA,NA,NA,NA,NA,NA,NA,NA,NA,NA,NA,NA,NA,NA,NA,NA,NA,NA,NA,NA,NA,NA,NA,NA,NA,NA,NA,NA,NA,NA,NA,NA,NA,NA,NA,NA,NA,NA,NA
369686,"THE FIRST EDUCATORS, INC",0,85,330,0,0,25.75757575757576,33.46456692913386,129.92125984251967,0.949,100,330,0,330,85,0,85,Northwest Educational Center,2910 Antoine B-100,Houston,TX,77092,48,03303300,9,3,3,2,1,2,6,2,1,11,1,1,1,-95.473149,29.813796,132,152,176,41,37,130,152,176,41,37,94,130,141,34,30,72,86,80,83,81,NA,NA,NA,NA,NA,NA,NA,NA,NA,NA,NA,NA,NA,NA,NA,NA,NA,NA,NA,NA,NA,NA,NA,NA,NA,NA,NA,NA,NA,NA
458098,"SPA A SCHOOL DALLAS, INC",0,78,78,99559,1276.3974358974358,100,42.857142857142854,42.857142857142854,0.6,70.51282051282051,55,23,78,55,23,78,The Salon Professional Academy-Lewisville,2440 B S Stemmons Fwy,Lewisville,TX,75067,48,04165800,9,3,3,2,1,2,6,2,1,21,1,1,1,-96.964907,33.005024,8,20,13,16,27,8,20,13,16,27,7,19,11,14,20,88,95,85,88,74,NA,NA,NA,NA,NA,NA,NA,NA,NA,NA,0,1,1,1,3,0,1,1,1,3,0,0,0,0,1,NA,0,0,0,33
228778,THE UNIVERSITY OF TEXAS AT AUSTIN,1,15099,32423,19731161,1306.785946089145,46.56879375751781,NA,NA,NA,73.51201904615621,17790,7525,25315,9572,3449,13021,The University of Texas at Austin,110 Inner Campus Drive,Austin,TX,78705,48,00365800,1,1,1,9,1,1,2,2,5,11,1,1,1,-97.738273,30.282825,8570,8238,8817,8007,8318,8570,8238,8817,8007,8318,8103,7822,8437,7739,8021,95,95,96,97,96,8238,8817,8007,8318,8915,10671,10664,9873,10198,11135,149,143,143,163,141,149,143,143,163,141,129,127,118,153,124,87,89,83,94,88
409315,SOUTH TEXAS COLLEGE,1,11314,15872,10531295,930.8197808025456,71.28276209677419,25.984704072024066,36.45299832341931,0.798,87.88226975428672,13803,2069,15872,9943,1371,11314,South Texas College,3201 W Pecan,McAllen,TX,78502-9701,48,03103400,1,1,1,5,1,2,3,2,5,12,1,1,1,-98.253634,26.217591,46,46,53,42,55,46,46,53,42,55,32,33,34,23,31,70,72,64,55,56,3167,2928,3088,1770,1802,9937,9563,9952,6834,6255,32,26,44,34,55,32,26,44,34,55,19,12,23,18,26,59,46,52,53,47
223083,"VHS SAN ANTONIO PARTNERS, LLC DBA BAPTIST HEALTH SYSTEM SCHO",0,419,502,265809,634.3890214797136,83.46613545816733,40.32723772858518,48.315688161693934,NA,53.46062052505967,267,235,502,224,195,419,Baptist Health System School of Health Professions,8400 Datapoint Dr,San Antonio,TX,78229,48,00660600,3,1,3,7,1,1,3,2,1,11,1,1,1,-98.567486,29.517063,NA,NA,NA,NA,NA,NA,NA,NA,NA,NA,NA,NA,NA,NA,NA,NA,NA,NA,NA,NA,NA,NA,NA,NA,NA,NA,NA,NA,NA,NA,NA,NA,NA,NA,NA,NA,NA,NA,NA,NA,NA,NA,NA,NA,NA,NA,NA,NA,NA,NA
222628,AMBERTON UNIVERSITY,0,32,69,67757,2117.40625,46.3768115942029,1.5609756097560976,3.3658536585365857,NA,NA,0,0,0,0,0,0,Amberton University,1700 Eastgate Dr,Garland,TX,75041-5595,48,02259400,2,1,2,7,1,1,2,2,2,21,1,1,1,-96.65302,32.859931,NA,NA,NA,NA,NA,NA,NA,NA,NA,NA,NA,NA,NA,NA,NA,NA,NA,NA,NA,NA,NA,NA,NA,NA,NA,NA,NA,NA,NA,NA,NA,NA,NA,NA,NA,NA,NA,NA,NA,NA,NA,NA,NA,NA,NA,NA,NA,NA,NA,NA
228200,STVT-AAI EDUCATION INC.,0,322,322,727561.47,2259.5076708074535,100,42.876165113182424,42.876165113182424,0.855,77.63975155279503,250,72,322,250,72,322,South Texas Vocational Technical Institute-Weslaco,"1600 North Westgate Drive, Suite 400",Weslaco,TX,78599,48,02548800,9,3,3,2,1,2,6,2,1,21,1,1,1,-98.006077,26.176606,188,177,89,97,61,188,177,89,97,61,144,118,56,67,43,77,67,63,69,70,NA,NA,NA,NA,NA,NA,NA,NA,NA,NA,NA,NA,NA,0,1,NA,NA,NA,0,1,NA,NA,NA,0,0,NA,NA,NA,NA,0
227854,ST. PHILIP'S COLLEGE - ALAMO COLLEGES DISTRICT,1,2740,4790,3427506,1250.914598540146,57.20250521920668,13.11632359980852,22.929631402584967,0.684,97.15328467153284,3786,1004,4790,2662,78,2740,St Philip's College,1801 Martin Luther King Dr,San Antonio,TX,78203-2098,48,00360800,4,2,1,3,1,2,4,2,4,11,1,1,1,-98.453285,29.41508,292,322,329,539,362,292,322,329,539,362,183,180,204,295,226,63,56,62,55,62,322,329,539,362,385,1693,1659,2363,1907,2334,676,700,674,765,900,676,700,674,765,900,276,280,285,259,275,41,40,42,34,31
420705,BAKKE GRADUATE UNIVERSITY,0,NA,8,1331,NA,NA,NA,5.594405594405594,NA,NA,0,0,0,0,0,NA,Bakke Graduate University,8515 Greenville Ave S206,Dallas,TX,75243-7039,48,03110800,2,1,2,9,2,1,1,2,1,11,1,1,1,-96.753976,32.894605,NA,NA,NA,NA,NA,NA,NA,NA,NA,NA,NA,NA,NA,NA,NA,NA,NA,NA,NA,NA,NA,NA,NA,NA,NA,NA,NA,NA,NA,NA,NA,NA,NA,NA,NA,NA,NA,NA,NA,NA,NA,NA,NA,NA,NA,NA,NA,NA,NA,NA
459523,ABC BEAUTY ACADEMY,0,NA,NA,75257.72,NA,NA,NA,NA,0.447,NA,NA,NA,NA,NA,NA,NA,ABC Beauty Academy,2109 Buckingham Rd.,Richardson,TX,75081,48,04168800,9,3,3,2,1,2,6,2,1,12,1,1,1,-96.685333,32.931698,NA,8,10,7,25,NA,8,10,7,25,NA,2,5,4,20,NA,25,50,57,80,NA,NA,NA,NA,NA,NA,NA,NA,NA,NA,NA,1,1,NA,NA,NA,1,1,NA,NA,NA,1,0,NA,NA,NA,100,0,NA,NA
388520,COLLEGE OF BIBLICAL STUDIES - HOUSTON,1,84,392,142673,1698.4880952380952,21.428571428571427,21.93211488250653,102.34986945169712,NA,69.04761904761905,223,169,392,58,26,84,College of Biblical Studies-Houston,7000 Regency Square Blvd.,Houston,TX,77036-3211,48,03422400,2,1,2,5,1,2,2,2,1,11,1,1,1,-95.506559,29.716676,5,0,0,4,8,5,0,0,4,8,1,0,0,4,5,20,NA,NA,100,63,5,NA,7,19,80,79,NA,325,150,337,13,0,1,28,39,13,0,1,28,39,7,0,1,14,29,54,NA,100,50,74
366261,COMMONWEALTH INSTITUTE OF FUNERAL SERVICE,0,29,49,32045,1105,59.18367346938776,9.294871794871796,15.705128205128204,0.548,NA,NA,NA,NA,NA,NA,NA,Commonwealth Institute of Funeral Service,415 Barren Springs Dr,Houston,TX,77090-5918,48,00355600,5,2,2,3,1,2,4,2,1,11,1,1,1,-95.430153,29.989545,55,38,33,80,49,55,38,33,80,49,40,18,22,31,26,73,47,67,39,53,38,33,80,33,55,51,51,115,56,75,NA,NA,NA,NA,NA,NA,NA,NA,NA,NA,NA,NA,NA,NA,NA,NA,NA,NA,NA,NA
229337,TEXAS TECH UNIVERSITY HEALTH SCIENCES CENTER,1,980,5081,938916,958.077551020408,19.28754182247589,13.397129186602871,69.46001367054,NA,30.275229357798167,327,1233,1560,66,152,218,Texas Tech University Health Sciences Center,3601 4th Street,Lubbock,TX,79430,48,01067400,1,1,1,9,1,1,2,2,3,11,1,1,1,-101.891915,33.589284,NA,NA,NA,NA,NA,NA,NA,NA,NA,NA,NA,NA,NA,NA,NA,NA,NA,NA,NA,NA,NA,NA,NA,NA,NA,NA,NA,NA,NA,NA,NA,NA,NA,NA,NA,NA,NA,NA,NA,NA,NA,NA,NA,NA,NA,NA,NA,NA,NA,NA
227216,UNIVERSITY OF NORTH TEXAS,1,12611,30087,11170849.91,885.8020704147174,41.91511283943231,28.685485521916153,68.43709482974319,0.383,50.96518441916581,13312,12996,26308,5914,5690,11604,University of North Texas,1501 W.Chestnut Ave.,Denton,TX,76203-1277,48,00359400,1,1,1,9,1,1,2,2,5,12,1,1,1,-97.148422,33.211178,4554,4720,4571,5308,5071,4550,4713,4566,5305,5071,3542,3685,3617,4522,4010,78,78,79,85,79,4895,4770,5501,5121,5363,9141,9019,10018,9470,9675,88,95,103,100,172,88,95,103,100,172,47,54,60,63,101,53,57,58,63,59
224271,DALLAS INSTITUTE OF FUNERAL SERVICE,0,189,190,110935,586.957671957672,99.47368421052632,51.63934426229508,51.91256830601093,0.382,NA,151,39,190,NA,NA,189,Dallas Institute of Funeral Service,3909 S Buckner Blvd,Dallas,TX,75227-4314,48,01076100,5,2,2,3,1,2,4,2,1,11,1,1,1,-96.683404,32.771368,24,31,52,74,96,24,31,52,74,96,19,16,38,58,74,79,52,73,78,77,31,52,74,88,130,88,171,186,262,350,NA,NA,NA,NA,0,NA,NA,NA,NA,0,NA,NA,NA,NA,0,NA,NA,NA,NA,NA
369783,PRINCE CAREER'S INC,0,262,262,627600,2395.4198473282445,100,34.473684210526315,34.473684210526315,0.876,NA,NA,NA,262,NA,NA,262,PCI Health Training Center,8101 John Carpenter Fwy,Dallas,TX,75247-4720,48,03019800,9,3,3,2,1,2,6,2,1,11,1,1,1,-96.876316,32.82007,92,119,116,407,232,92,119,116,407,232,88,100,113,342,232,96,84,97,84,100,NA,NA,NA,NA,NA,NA,NA,NA,NA,NA,NA,NA,NA,NA,NA,NA,NA,NA,NA,NA,NA,NA,NA,NA,NA,NA,NA,NA,NA,NA
441788,"TECHNICAL EDUCATION SERVICES, INC.",0,548,548,512059,934.4142335766423,100,60.552486187845304,60.552486187845304,0.414,58.3941605839416,320,228,548,320,228,548,Aviation Institute of Maintenance-Dallas,400 E. Airport Freeway,Irving,TX,75061,48,03573300,6,2,3,4,1,2,6,2,1,12,1,1,1,-96.941822,32.836068,78,47,32,57,70,78,47,32,57,70,27,32,27,29,56,35,68,84,51,80,NA,NA,NA,NA,NA,NA,NA,NA,NA,NA,29,5,NA,NA,NA,29,5,NA,NA,NA,5,0,NA,NA,NA,17,0,NA,NA,NA
377218,SCHOOL OF AUTOMOTIVE MACHINISTS & TECHNOLOGY,0,134,142,165456,1234.7462686567164,94.3661971830986,57.02127659574469,60.42553191489362,0.588,61.940298507462686,88,54,142,83,51,134,School of Automotive Machinists & Technology,1911 Antoine Drive,Houston,TX,77055-1803,48,03032300,6,2,3,4,1,2,4,2,1,11,1,1,1,-95.476017,29.805166,25,20,21,19,13,25,19,21,19,13,24,18,19,19,13,96,95,90,100,100,NA,NA,NA,NA,NA,NA,NA,NA,NA,NA,NA,NA,NA,NA,NA,NA,NA,NA,NA,NA,NA,NA,NA,NA,NA,NA,NA,NA,NA,NA
365204,"COMPUTER CAREER CENTER, LP",0,3270,3270,6248771.38,1910.939259938838,100,59.56284153005464,59.56284153005464,0.703,90.82568807339447,2970,300,3270,2970,300,3270,Vista College,6101 Montana Ave,El Paso,TX,79925-2021,48,02572000,6,2,3,3,1,2,4,2,2,11,1,1,1,-106.411952,31.786912,1711,1289,147,143,NA,1711,1285,147,143,NA,949,765,57,55,NA,55,60,39,38,NA,1289,147,143,91,NA,1289,1198,1177,1040,NA,NA,NA,NA,NA,NA,NA,NA,NA,NA,NA,NA,NA,NA,NA,NA,NA,NA,NA,NA,NA
458043,"DUVALLS SCHOOL OF COSMETOLOGY, LLC",0,70,70,97694,1395.6285714285714,100,38.88888888888889,38.88888888888889,0.579,58.57142857142858,41,29,70,41,29,70,DuVall's School of Cosmetology,201 Harwood Rd Ste 218,Bedford,TX,76021,48,04154800,9,3,3,2,1,2,6,2,1,21,1,1,1,-97.168105,32.852275,8,9,16,17,26,8,9,16,17,26,8,3,14,13,23,100,33,88,76,88,NA,NA,NA,NA,NA,NA,NA,NA,NA,NA,7,0,8,1,4,7,0,8,1,4,4,0,3,1,4,57,NA,38,100,100
246354,PALO ALTO COLLEGE,1,2720,5154,1615469,593.9224264705882,52.77454404346139,16.336336336336334,30.954954954954957,0.674,97.31617647058825,4175,979,NA,2647,73,2720,Palo Alto College,1400 W Villaret Blvd,San Antonio,TX,78224-2499,48,02341300,4,2,1,3,1,2,4,2,4,11,1,1,1,-98.543468,29.322955,494,670,713,948,742,494,670,713,948,742,306,419,436,507,447,62,63,61,53,60,670,713,948,742,583,2033,2081,2579,2503,2383,880,986,832,820,1304,880,986,832,820,1304,374,421,345,248,344,43,43,41,30,26
434274,ACADEMY OF HAIR DESIGN,0,65,65,126613,1947.8923076923077,100,45.13888888888889,45.13888888888889,0.792,100,65,NA,65,65,0,65,Academy of Hair Design-Lufkin,512 S Chestnut,Lufkin,TX,75904,48,03276300,9,3,3,2,1,2,6,2,1,33,1,1,1,-94.718704,31.330724,55,55,52,52,52,55,55,52,52,52,16,17,17,17,19,29,31,33,33,37,NA,NA,NA,NA,NA,NA,NA,NA,NA,NA,23,21,24,23,23,23,21,24,23,23,5,6,6,6,8,22,29,25,26,35
437608,"ADVANCED BARBER COLLEGE & HAIR DESIGN, INC.",0,145,145,167737,1156.806896551724,100,58.94308943089431,58.94308943089431,0.86,NA,NA,NA,NA,NA,NA,NA,Advanced Barber College and Hair Design,2818 S International,Weslaco,TX,78596,48,03412300,9,3,3,2,1,2,6,2,1,21,1,1,1,-97.958247,26.131543,173,141,130,42,43,173,135,120,42,38,121,60,59,30,26,70,44,49,71,68,NA,NA,NA,NA,NA,NA,NA,NA,NA,NA,0,16,12,9,3,0,16,12,9,3,0,12,10,7,2,NA,75,83,78,67
225991,"KD CONSERVATORY, COLLEGE OF FILM & DRAMATIC ARTS",0,54,93,51400,951.8518518518518,58.06451612903226,39.130434782608695,67.3913043478261,0.771,79.62962962962963,43,50,93,43,11,54,KD Conservatory College of Film and Dramatic Arts,2600 Stemmons Fwy Ste 117,Dallas,TX,75207,48,02318200,6,2,3,3,1,2,4,2,1,11,1,1,1,-96.841975,32.808265,25,23,27,45,40,25,23,27,45,38,16,18,16,25,23,64,78,59,56,61,25,26,45,40,31,51,51,71,66,37,NA,NA,NA,NA,NA,NA,NA,NA,NA,NA,NA,NA,NA,NA,NA,NA,NA,NA,NA,NA
228787,THE UNIVERSITY OF TEXAS AT DALLAS,0,5573,21912,9566094,1716.5070877444823,25.433552391383717,17.737674655463252,69.74123937744677,0.258,59.83996951800344,7596,11359,18955,3141,2108,5249,The University of Texas at Dallas,800 West Campbell  Road,Richardson,TX,75080-3021,48,00974100,1,1,1,9,1,1,2,2,5,12,1,1,1,-96.749702,32.984673,3137,3085,3751,3997,3328,3137,3085,3751,3997,3328,2747,2730,3326,3603,2936,88,88,89,90,88,3085,3751,3997,3328,3840,5360,6016,6179,5545,5991,92,92,111,76,148,92,92,111,76,148,68,67,76,58,109,74,73,68,76,74
229018,THE UNIVERSITY OF TEXAS PERMIAN BASIN,1,590,3814,1412600,2394.237288135593,15.46932354483482,7.225964482547459,46.7115737905695,0.411,67.01940035273368,1882,1272,3154,380,187,567,The University of Texas Permian Basin,4901 E University,Odessa,TX,79762-0001,48,00993000,1,1,1,7,1,1,2,2,3,12,1,1,1,-102.329634,31.889509,440,429,363,355,439,440,429,363,355,439,289,291,230,230,293,66,68,63,65,67,429,363,355,505,353,2446,1640,1602,991,1224,50,23,21,47,63,50,23,21,47,63,23,17,12,28,27,46,74,57,60,43
229027,THE UNIVERSITY OF TEXAS AT SAN ANTONIO,1,16390,32388,17224949,1050.942586943258,50.60516240582932,45.839742693329605,90.58313522584254,0.447,61.20813642901172,17023,12159,29182,8937,5664,14601,The University of Texas at San Antonio,One UTSA Circle,San Antonio,TX,78249-1644,48,01011500,1,1,1,9,1,1,2,2,5,11,1,1,1,-98.620657,29.583709,4306,4946,4865,4343,4504,4306,4946,4865,4342,4504,3169,3631,3574,3367,3507,74,73,73,78,78,4946,4865,4343,4504,4445,8117,8433,8178,8958,8977,71,83,119,256,829,71,83,119,256,829,35,46,71,172,296,49,55,60,67,36
228802,THE UNIVERSITY OF TEXAS AT TYLER,0,1401,5244,2597305,1853.893647394718,26.716247139588106,11.400439417365122,42.67230856863862,0.304,67.58928571428572,2012,1830,3842,757,363,1120,The University of Texas at Tyler,3900 University Blvd,Tyler,TX,75799-6699,48,01116300,1,1,1,9,1,1,2,2,3,12,1,1,1,-95.254337,32.315772,815,650,824,822,1025,815,650,824,822,1025,518,400,583,530,634,64,62,71,64,62,650,824,822,1025,1113,2349,2454,2091,2406,2361,10,66,83,21,40,10,66,83,21,40,6,44,48,14,21,60,67,58,67,53
228653,THE UNIVERSITY OF TEXAS MEDICAL BRANCH AT GALVESTON,0,509,1747,550876,1082.271119842829,29.135661133371492,12.555500740009869,43.093241243216575,NA,NA,112,233,345,NA,NA,68,The University of Texas Medical Branch at Galveston,301 University Blvd,Galveston,TX,77555-0129,48,00495200,1,1,1,9,1,1,2,2,2,31,1,1,1,-94.775956,29.310758,NA,NA,NA,NA,NA,NA,NA,NA,NA,NA,NA,NA,NA,NA,NA,NA,NA,NA,NA,NA,NA,NA,NA,NA,NA,NA,NA,NA,NA,NA,NA,NA,NA,NA,NA,NA,NA,NA,NA,NA,NA,NA,NA,NA,NA,NA,NA,NA,NA,NA
228635,UT SOUTHWESTERN MEDICAL CENTER,0,242,1140,301303,1245.0537190082644,21.228070175438596,9.626093874303898,45.34606205250597,NA,NA,0,0,0,0,0,0,University of Texas Southwestern Medical Center,5323 Harry Hines Blvd,Dallas,TX,75390-9096,48,01001900,1,1,1,9,2,1,1,2,2,11,1,1,1,-96.841156,32.812307,NA,NA,NA,NA,NA,NA,NA,NA,NA,NA,NA,NA,NA,NA,NA,NA,NA,NA,NA,NA,NA,NA,NA,NA,NA,NA,NA,NA,NA,NA,NA,NA,NA,NA,NA,NA,NA,NA,NA,NA,NA,NA,NA,NA,NA,NA,NA,NA,NA,NA
229300,THE UNIVERSITY OF TEXAS HEALTH SCIENCE CENTER AT HOUSTON,0,1411,3555,997852,707.1948972360028,39.69057665260197,21.53212269189684,54.24996184953456,NA,75.94501718213058,273,440,713,221,70,291,The University of Texas Health Science Center at Houston,7000 Fannin,Houston,TX,77030,48,00495100,1,1,1,9,1,1,2,2,3,11,1,1,1,-95.403183,29.702873,NA,NA,NA,NA,NA,NA,NA,NA,NA,NA,NA,NA,NA,NA,NA,NA,NA,NA,NA,NA,NA,NA,NA,NA,NA,NA,NA,NA,NA,NA,NA,NA,NA,NA,NA,NA,NA,NA,NA,NA,NA,NA,NA,NA,NA,NA,NA,NA,NA,NA
416801,THE UNIVERSITY OF TEXAS MD ANDERSON CANCER CENTER,0,143,345,516397,3611.167832167832,41.44927536231883,25.952813067150636,62.613430127041745,NA,NA,167,158,325,86,NA,NA,The University of Texas MD Anderson Cancer Center,1515 Holcombe Blvd.,Houston,TX,77030-4009,48,02555400,1,1,1,7,1,1,2,2,1,11,1,1,1,-95.396804,29.707016,NA,NA,NA,NA,NA,NA,NA,NA,NA,NA,NA,NA,NA,NA,NA,NA,NA,NA,NA,NA,NA,NA,NA,NA,NA,NA,NA,NA,NA,NA,NA,NA,NA,NA,NA,NA,NA,NA,NA,NA,NA,NA,NA,NA,NA,NA,NA,NA,NA,NA
228644,UNIVERSITY OF TEXAS HLTH SCI CTR SAN ANTONIO,1,741,2473,772901,1043.051282051282,29.96360695511525,19.093017263591857,63.72069054367431,NA,NA,185,411,596,NA,NA,NA,The University of Texas Health Science Center at San Antonio,7703 Floyd Curl Dr,San Antonio,TX,78229-3900,48,00365900,1,1,1,9,1,1,2,2,2,11,1,1,1,-98.575655,29.508107,NA,NA,NA,NA,NA,NA,NA,NA,NA,NA,NA,NA,NA,NA,NA,NA,NA,NA,NA,NA,NA,NA,NA,NA,NA,NA,NA,NA,NA,NA,NA,NA,NA,NA,NA,NA,NA,NA,NA,NA,NA,NA,NA,NA,NA,NA,NA,NA,NA,NA
485537,THE UNIVERSITY OF TEXAS HEALTH SCIENCE CENTER AT TYLER,0,11,39,4656,423.27272727272725,28.205128205128204,11.224489795918368,39.795918367346935,NA,NA,0,0,0,0,0,0,University of Texas Health Science Center at Tyler,11937 US Highway 271,Tyler,TX,75708-3154,48,04243900,1,1,1,7,2,1,1,2,1,12,1,1,1,-95.213526,32.425963,NA,NA,NA,NA,NA,NA,NA,NA,NA,NA,NA,NA,NA,NA,NA,NA,NA,NA,NA,NA,NA,NA,NA,NA,NA,NA,NA,NA,NA,NA,NA,NA,NA,NA,NA,NA,NA,NA,NA,NA,NA,NA,NA,NA,NA,NA,NA,NA,NA,NA
481003,MT TRAINING CENTER,0,88,112,123341,1401.6022727272727,78.57142857142857,25,31.818181818181817,0.526,73.86363636363636,75,37,112,65,23,88,M T Training Center,1801 S. Great Southwest Parkway,Grand Prairie,TX,75051,48,04226400,9,3,3,2,1,2,6,2,1,21,1,1,1,-97.042564,32.72,52,52,129,92,81,52,52,129,92,81,43,43,106,81,73,83,83,82,88,90,NA,NA,NA,NA,NA,NA,NA,NA,NA,NA,NA,NA,NA,NA,NA,NA,NA,NA,NA,NA,NA,NA,NA,NA,NA,NA,NA,NA,NA,NA
491589,MYSTROS BARBER ACADEMY,0,30,40,208296.8,6943.2266666666665,75,103.44827586206895,137.93103448275863,NA,NA,0,0,0,0,0,NA,Mystros Barber Academy,1434 Ste. B Cypress Creek Parkway,Houston,TX,77090-3300,48,04260900,8,3,2,2,1,2,6,2,1,11,1,1,1,-95.453049,30.014,NA,20,5,1,6,NA,20,3,1,6,NA,15,2,1,5,NA,75,67,100,83,NA,NA,NA,NA,NA,NA,NA,NA,NA,NA,NA,5,NA,5,10,NA,5,NA,5,10,NA,3,NA,4,8,NA,60,NA,80,80
449773,CCI TRAINING CENTER,0,145,194,73859,509.3724137931035,74.74226804123711,41.78674351585015,55.907780979827095,0.452,NA,NA,NA,NA,NA,NA,NA,CCI Training Center-Arlington,770 E. Road To Six Flags # 140,Arlington,TX,76011,48,04089400,9,3,3,1,1,2,6,2,1,11,1,1,1,-97.101289,32.755006,NA,NA,NA,NA,NA,NA,NA,NA,NA,NA,NA,NA,NA,NA,NA,NA,NA,NA,NA,NA,NA,NA,NA,NA,NA,NA,NA,NA,NA,NA,NA,NA,NA,NA,NA,NA,NA,NA,NA,NA,NA,NA,NA,NA,NA,NA,NA,NA,NA,NA
459532,SALON & SPA INSTITUTE,0,84,90,62300,741.6666666666666,93.33333333333331,62.22222222222222,66.66666666666666,0.958,92.45283018867924,55,4,59,49,4,53,Salon & Spa Institute,2695 North Coria Street,Brownsville,TX,78520-8809,48,04169000,9,3,3,2,1,2,6,2,1,12,1,1,1,-97.508606,25.938911,26,17,42,47,36,25,17,42,47,36,18,13,32,25,29,72,76,76,53,81,NA,NA,NA,NA,NA,NA,NA,NA,NA,NA,NA,NA,NA,NA,0,NA,NA,NA,NA,0,NA,NA,NA,NA,0,NA,NA,NA,NA,NA
455336,WHIT CORP,0,224,227,269228.81,1201.914330357143,98.6784140969163,74.91638795986621,75.91973244147158,0.647,64.73214285714286,147,80,227,145,79,224,MediaTech Institute-Dallas,13300 Branch View Lane,Dallas,TX,75234,48,04129800,6,2,3,3,1,2,4,2,1,21,1,1,1,-96.902721,32.92427,62,102,67,70,75,62,102,67,70,75,52,62,24,24,22,84,61,36,34,29,NA,NA,NA,NA,NA,NA,NA,NA,NA,NA,NA,NA,NA,NA,NA,NA,NA,NA,NA,NA,NA,NA,NA,NA,NA,NA,NA,NA,NA,NA
423412,MID CITIES BARBER COLLEGE,0,27,27,16026.8,593.5851851851852,100,62.7906976744186,62.7906976744186,NA,NA,NA,NA,27,NA,NA,27,Mid Cities Barber College,"2345 Southwest 3rd Street, Suite101",Grand Prairie,TX,75051-4892,48,03111000,9,3,3,2,1,2,6,2,1,21,1,1,1,-97.006955,32.710329,NA,0,11,40,16,NA,0,11,40,15,NA,0,10,23,9,NA,NA,91,58,60,NA,NA,NA,NA,NA,NA,NA,NA,NA,NA,NA,NA,0,NA,NA,NA,NA,0,NA,NA,NA,NA,0,NA,NA,NA,NA,NA,NA,NA
227748,"TECHNICAL EDUCATION SERVICES, INC.",0,239,239,317947,1330.3221757322176,100,54.31818181818182,54.31818181818182,0.697,72.80334728033473,174,65,239,174,65,239,Aviation Institute of Maintenance-Houston,7651 Airport Blvd.,Houston,TX,77061,48,04146700,6,2,3,4,1,2,6,2,1,11,1,1,1,-95.28262,29.65852,41,34,28,13,27,41,34,28,13,27,33,29,20,10,20,80,85,71,77,74,NA,NA,NA,NA,NA,NA,NA,NA,NA,NA,6,2,NA,NA,NA,6,2,NA,NA,NA,1,2,NA,NA,NA,17,100,NA,NA,NA
246460,CENTRAL TEXAS BEAUTY COLLEGE,0,66,132,151290.48,2292.28,50,37.07865168539326,74.15730337078652,0.856,NA,132,0,132,NA,NA,NA,Central Texas Beauty College-Round Rock,1400 N. Mays,Round Rock,TX,78664-4604,48,02239100,9,3,3,2,1,2,6,2,1,12,1,1,1,-97.685077,30.520723,62,76,82,82,82,62,76,82,82,82,14,18,18,18,18,23,24,22,22,22,NA,NA,NA,NA,NA,NA,NA,NA,NA,NA,NA,NA,NA,NA,NA,NA,NA,NA,NA,NA,NA,NA,NA,NA,NA,NA,NA,NA,NA,NA
449807,SOUTHEAST TEXAS CAREER INSTITUTE LLC,0,0,44,92620,Inf,0,0,27.160493827160497,0.268,NA,40,4,44,0,0,0,Southeast Texas Career Institute,975 Hwy 327 E Suite 150,Silsbee,TX,77656,48,04036300,9,3,3,2,1,2,6,2,1,31,1,1,1,-94.169885,30.341896,25,20,25,27,76,25,20,25,27,72,15,13,22,23,56,60,65,88,85,78,NA,NA,NA,NA,NA,NA,NA,NA,NA,NA,NA,NA,NA,NA,NA,NA,NA,NA,NA,NA,NA,NA,NA,NA,NA,NA,NA,NA,NA,NA
488730,NORTHEAST LAKEVIEW COLLEGE,1,1422,3196,1343444,944.7566807313644,44.49311639549437,15.76671471338286,35.436301142033486,0.074,98.1012658227848,1935,1261,3196,1395,27,1422,Northeast Lakeview College,1201 Kitty Hawk Rd,Universal City,TX,78145,48,04263600,4,2,1,3,1,2,4,2,3,21,1,1,1,-98.323246,29.545802,199,248,554,802,442,199,248,554,802,442,130,155,365,495,267,65,63,66,62,60,248,554,802,442,530,1284,1523,1878,1482,1775,591,763,648,553,740,591,763,648,553,740,296,421,341,216,299,50,55,53,39,40
483036,TEXAS A&M UNIVERSITY-CENTRAL TEXAS,1,325,2470,649917,1999.7446153846151,13.157894736842104,9.7188995215311,73.86363636363636,NA,71.92307692307692,1098,907,2005,187,73,260,Texas A&M University-Central Texas,1001 Leadership Place,Killeen,TX,76549,48,04229500,1,1,1,7,1,1,2,2,2,41,1,1,1,-97.775182,31.053407,NA,NA,0,0,0,NA,NA,0,0,0,NA,NA,0,0,0,NA,NA,NA,NA,NA,NA,NA,5,17,11,NA,NA,529,474,464,NA,NA,0,0,0,NA,NA,0,0,0,NA,NA,0,0,0,NA,NA,NA,NA,NA
458061,BEAUTY FIRST JOIN CORPORATION / DBA TEXAS BEAUTY COLLEGE,0,57,57,40523,710.9298245614035,100,67.85714285714286,67.85714285714286,0.549,100,42,0,42,42,0,42,Texas Beauty College,4123 Denton Hwy,Haltom city,TX,76117,48,04158500,9,3,3,2,1,2,6,2,1,21,1,1,1,-97.265311,32.826045,1,0,0,3,7,1,0,0,3,7,1,0,0,1,7,100,NA,NA,33,100,NA,NA,NA,NA,NA,NA,NA,NA,NA,NA,13,9,11,13,13,13,8,11,13,13,4,2,2,2,13,31,25,18,15,100
223472,VET TECH INSTITUTE OF HOUSTON,0,192,353,198750,1035.15625,54.39093484419264,51.891891891891895,95.4054054054054,0.62,69.79166666666666,234,119,353,134,58,192,Vet Tech Institute of Houston,4669 Southwest Fwy Ste 100,Houston,TX,77027,48,02144800,6,2,3,3,1,2,4,2,1,11,1,1,1,-95.455533,29.728907,26,24,29,26,20,26,24,29,26,20,15,12,15,21,12,58,50,52,81,60,24,29,27,20,33,56,67,61,56,71,NA,NA,NA,NA,NA,NA,NA,NA,NA,NA,NA,NA,NA,NA,NA,NA,NA,NA,NA,NA
459514,"PELOTON COLLEGE, LLC",0,191,375,227607,1191.6596858638743,50.93333333333333,72.34848484848484,142.04545454545453,0.814,96.3350785340314,368,7,375,184,7,191,Peloton College,8150 North Central Expressway M2240,Dallas,TX,75206,48,04168700,6,2,3,3,1,2,4,2,1,11,1,1,1,-96.769353,32.861997,28,31,24,83,63,28,31,24,83,63,9,17,17,45,40,32,55,71,54,63,NA,24,NA,NA,NA,NA,32,NA,NA,NA,NA,NA,NA,NA,NA,NA,NA,NA,NA,NA,NA,NA,NA,NA,NA,NA,NA,NA,NA,NA
485953,THE RECORDING CONSERVATORY OF AUSTIN,0,12,12,10311,859.25,100,20,20,0.254,75,9,NA,12,9,NA,12,The Recording Conservatory of Austin,4615 City Park Road,Austin,TX,78730-3004,48,04248000,6,2,3,3,1,2,4,2,1,11,1,1,1,-97.831161,30.360236,39,30,36,26,13,39,30,36,26,13,28,22,22,20,9,72,73,61,77,69,NA,NA,NA,NA,NA,NA,NA,NA,NA,NA,NA,NA,NA,NA,NA,NA,NA,NA,NA,NA,NA,NA,NA,NA,NA,NA,NA,NA,NA,NA
476726,"LAN-ROD INVESTMENTS, LLC",0,394,394,269496,684,100,37.994214079074254,37.994214079074254,0.433,100,394,0,394,394,0,394,Rio Grande Valley College,5419 North Cage Boulevard,Pharr,TX,78577-2106,48,04193000,6,2,3,3,1,2,4,2,1,21,1,1,1,-98.177978,26.24215,65,172,146,327,184,65,172,146,327,184,50,136,124,255,131,77,79,85,78,71,NA,NA,NA,NA,NA,NA,NA,NA,NA,NA,NA,NA,NA,NA,NA,NA,NA,NA,NA,NA,NA,NA,NA,NA,NA,NA,NA,NA,NA,NA
228705,TEXAS A&M UNIVERSITY-KINGSVILLE,1,1389,4782,2896380,2085.226781857451,29.046424090338768,14.22572716099959,48.97582957804178,0.561,76.60910518053376,3012,1254,4266,976,298,1274,Texas A & M University-Kingsville,955 University Blvd,Kingsville,TX,78363,48,00363900,1,1,1,9,1,1,2,2,3,32,1,1,1,-97.882387,27.525168,1200,1078,1213,962,1006,1199,1078,1213,962,1006,816,720,788,694,662,68,67,65,72,66,1078,1213,962,1006,897,2129,1776,1808,1608,1414,57,36,38,25,49,57,36,38,25,49,24,19,9,14,16,42,53,24,56,33
455327,HANDS ON THERAPY,0,38,38,42668,1122.842105263158,100,50,50,0.781,NA,NA,NA,38,NA,NA,38,Hands on Therapy,1804 N Galloway Ave,Mesquite,TX,75149,48,03970300,9,3,3,1,1,2,6,2,1,21,1,1,1,-96.60627,32.787719,NA,NA,NA,NA,NA,NA,NA,NA,NA,NA,NA,NA,NA,NA,NA,NA,NA,NA,NA,NA,NA,NA,NA,NA,NA,NA,NA,NA,NA,NA,NA,NA,NA,NA,NA,NA,NA,NA,NA,NA,NA,NA,NA,NA,NA,NA,NA,NA,NA,NA
377193,UCAS UNIVERSITY OF COSMETOLOGY ARTS & SCIENCES,0,62,62,133702,2156.483870967742,100,76.5432098765432,76.5432098765432,NA,100,62,0,62,62,0,62,UCAS University of Cosmetology Arts & Sciences,"910 Southeast Military, Suite 100",San Antonio,TX,78214,48,03011800,9,3,3,2,1,2,6,2,1,11,1,1,1,-98.484836,29.354354,5,5,5,5,4,5,5,5,5,4,5,5,3,3,3,100,100,60,60,75,NA,NA,NA,NA,NA,NA,NA,NA,NA,NA,NA,NA,NA,NA,NA,NA,NA,NA,NA,NA,NA,NA,NA,NA,NA,NA,NA,NA,NA,NA
461795,NORTH AMERICAN UNIVERSITY,0,143,143,122356.52,855.64,100,17.48166259168704,17.48166259168704,0.535,NA,NA,NA,143,NA,NA,143,North American University,11929 West Airport Blvd.,Stafford,TX,77477-0000,48,04179500,2,1,2,7,1,1,2,2,1,21,1,1,1,-95.588338,29.646303,94,50,57,49,124,94,50,57,49,124,43,30,30,44,43,46,60,53,90,35,50,57,49,124,89,72,77,87,189,165,1,NA,3,7,28,1,NA,3,7,28,0,NA,0,0,2,0,NA,0,0,7
418968,"70 FAHRENHEIT, INC.",0,212,222,135276,638.0943396226415,95.4954954954955,61.27167630057804,64.16184971098265,0.642,88.67924528301887,197,25,222,188,24,212,Tint School of Makeup and Cosmetology-Dallas,311 A E Pioneer Pkwy Hwy 303,Grand Prairie,TX,75051,48,03035200,9,3,3,2,1,2,6,2,1,21,1,1,1,-97.001678,32.708337,38,38,22,23,28,38,38,22,23,28,20,22,13,14,14,53,58,59,61,50,NA,NA,NA,NA,NA,NA,NA,NA,NA,NA,NA,NA,NA,NA,NA,NA,NA,NA,NA,NA,NA,NA,NA,NA,NA,NA,NA,NA,NA,NA
459949,TEXAS A&M UNIVERSITY-SAN ANTONIO,1,3515,3515,2784716.36,792.2379402560455,100,44.1527446300716,44.1527446300716,0.573,67.10684273709484,2236,1096,3332,2236,1096,3332,Texas A&M University-San Antonio,One University Way,San Antonio,TX,78224,48,04248500,1,1,1,7,1,1,2,2,3,41,1,1,1,-98.52417,29.304762,435,510,473,664,592,435,510,473,662,592,310,302,326,447,396,71,59,69,68,67,522,473,664,592,936,1834,1740,1788,1705,1866,57,54,101,41,40,57,54,101,41,39,27,23,52,22,17,47,43,51,54,44
437635,TEXAS MEDICAL CAREERS LIMITED,0,504,1129,959054.46,1902.8858333333333,44.64127546501329,63,141.125,0.694,84.72222222222221,956,173,1129,427,77,504,The College of Health Care Professions-Austin,6330 E. Highway 290 Suite 180,Austin,TX,78723,48,03426300,6,2,3,3,1,2,4,2,1,11,1,1,1,-97.699064,30.322978,307,367,434,137,185,307,367,434,137,185,261,302,337,90,128,85,82,78,66,69,NA,NA,NA,NA,NA,NA,NA,NA,NA,NA,NA,NA,NA,NA,NA,NA,NA,NA,NA,NA,NA,NA,NA,NA,NA,NA,NA,NA,NA,NA
430704,TEXAS HEALTH AND SCIENCE UNIVERSITY,0,36,36,59416,1650.4444444444443,100,26.277372262773724,26.277372262773724,NA,NA,NA,NA,6,NA,NA,6,Texas Health and Science University,4005 Menchaca Rd,Austin,TX,78704,48,03179500,3,1,3,9,1,1,2,2,1,11,1,1,1,-97.785289,30.233143,NA,NA,NA,NA,NA,NA,NA,NA,NA,NA,NA,NA,NA,NA,NA,NA,NA,NA,NA,NA,NA,NA,NA,NA,NA,NA,NA,NA,NA,NA,NA,NA,NA,NA,NA,NA,NA,NA,NA,NA,NA,NA,NA,NA,NA,NA,NA,NA,NA,NA
458070,AVENUE FIVE INSTITUTE INC.,0,354,356,195300.18,551.6954237288136,99.438202247191,71.80527383367141,72.21095334685599,0.46,59.6045197740113,213,143,356,211,143,354,Avenue Five Institute,8620 Burnet Rd Ste 300,Austin,TX,78757,48,04160700,9,3,3,2,1,2,6,2,1,11,1,1,1,-97.728961,30.369503,28,47,40,31,34,28,47,40,31,34,24,43,36,27,30,86,91,90,87,88,NA,NA,NA,NA,NA,NA,NA,NA,NA,NA,0,0,3,4,NA,0,0,3,4,NA,0,0,3,4,NA,NA,NA,100,100,NA
436775,"TONI&GUY HAIRDRESSING ACADEMY, LP",0,124,124,156597,1262.8790322580646,100,47.509578544061306,47.509578544061306,0.497,61.29032258064516,76,48,124,76,48,124,Toni & Guy Hairdressing Academy-Plano,1921 Preston Road #2022,Plano,TX,75093,48,03371300,9,3,3,2,1,2,6,2,1,11,1,1,1,-96.797544,33.026159,72,26,38,23,25,72,26,38,23,25,52,21,33,19,16,72,81,87,83,64,NA,NA,NA,NA,NA,NA,NA,NA,NA,NA,NA,NA,NA,NA,NA,NA,NA,NA,NA,NA,NA,NA,NA,NA,NA,NA,NA,NA,NA,NA
492689,TEXAS TECH UNIVERSITY HEALTH SCIENCES CENTER AT EL PASO,1,196,624,211288,1078,31.41025641025641,20.828905419766205,66.31243358129649,NA,NA,132,119,251,NA,NA,96,Texas Tech University Health Sciences Center-El Paso,5001 El Paso Drive,El Paso,TX,79905-2827,48,04280800,1,1,1,9,1,1,2,2,1,11,1,1,1,-106.43122,31.771891,NA,NA,NA,NA,0,NA,NA,NA,NA,0,NA,NA,NA,NA,0,NA,NA,NA,NA,NA,NA,NA,NA,NA,NA,NA,NA,NA,NA,NA,NA,NA,NA,NA,NA,NA,NA,NA,NA,NA,NA,NA,NA,NA,NA,NA,NA,NA,NA,NA
476540,"VCCSA, INC",0,81,81,109536.3,1352.3,100,30.681818181818183,30.681818181818183,0.823,NA,NA,NA,81,NA,NA,81,Vogue College of Cosmetology-San Antonio Fredericksburg,1836 Fredericksburg Road,San Antonio,TX,78201-5035,48,04178200,9,3,3,2,1,2,6,2,1,11,1,1,1,-98.523455,29.462345,71,42,11,5,0,71,42,11,5,0,52,25,9,5,0,73,60,82,100,NA,NA,NA,NA,NA,NA,NA,NA,NA,NA,NA,28,16,14,7,0,28,16,14,7,0,21,10,11,6,0,75,63,79,86,NA
229656,VOGUE COLLEGE OF COSMETOLOGY,0,140,140,281373.4,2009.81,100,28.57142857142857,28.57142857142857,0.847,NA,NA,NA,NA,NA,NA,NA,Vogue College of Cosmetology-McAllen,800 Fern Avenue,McAllen,TX,78501-1945,48,04178400,9,3,3,2,1,2,6,2,1,12,1,1,1,-98.223022,26.232656,80,90,17,19,7,80,90,17,19,7,59,53,13,13,4,74,59,76,68,57,NA,NA,NA,NA,NA,NA,NA,NA,NA,NA,13,18,2,16,0,13,18,2,16,0,10,17,0,8,0,77,94,0,50,NA
476559,BOO COMPANY INC.,0,99,101,75064.77,758.23,98.01980198019804,47.368421052631575,48.32535885167464,0.618,NA,91,10,NA,89,10,NA,Vogue College of Cosmetology,6012 Ingram Road,San Antonio,TX,78238-4402,48,04178300,9,3,3,2,1,2,6,2,1,11,1,1,1,-98.602991,29.465563,25,23,5,3,0,25,23,5,3,0,20,15,5,2,0,80,65,100,67,NA,NA,NA,NA,NA,NA,NA,NA,NA,NA,NA,30,17,5,21,0,30,17,5,21,0,22,12,5,18,0,73,71,100,86,NA
222983,AUSTIN COLLEGE,1,649,1309,1342606,2068.7303543913713,49.57983193277311,49.278663629460894,99.3925588458618,0.374,49.15254237288136,NA,NA,1293,319,330,649,Austin College,900 N Grand Ave,Sherman,TX,75090-4400,48,00354300,2,1,2,7,1,1,2,2,2,13,1,1,1,-96.596331,33.646345,345,332,435,378,339,345,332,435,378,339,278,271,340,310,258,81,82,78,82,76,332,435,378,339,284,363,455,408,375,317,NA,NA,NA,NA,1,NA,NA,NA,NA,1,NA,NA,NA,NA,1,NA,NA,NA,NA,100
226107,LAMAR STATE COLLEGE ORANGE,0,857,1525,860510.4199999999,1004.0961726954492,56.19672131147541,28.53812853812854,50.782550782550786,0.389,41.77362893815636,733,792,1525,358,499,857,Lamar State College-Orange,410 Front St,Orange,TX,77630,48,02358200,4,2,1,4,1,2,4,2,2,22,1,1,1,-93.732235,30.0922,265,291,274,298,275,265,291,274,298,275,157,172,170,158,147,59,59,62,53,53,291,274,298,275,196,928,742,953,1081,923,77,56,78,70,61,77,56,78,70,61,29,21,32,21,25,38,38,41,30,41
226116,LAMAR STATE COLLEGE PORT ARTHUR,1,1332,1332,1509024.33,1132.9011486486488,100,43.67213114754098,43.67213114754098,0.512,44.44444444444444,592,740,1332,592,740,1332,Lamar State College-Port Arthur,1500 Proctor St,Port Arthur,TX,77640,48,02348500,4,2,1,3,1,2,4,2,2,13,1,1,1,-93.925886,29.880385,305,255,302,352,220,305,255,302,352,220,183,149,180,210,133,60,58,60,60,60,255,302,352,220,218,557,735,815,530,505,107,105,153,149,91,107,105,152,149,91,48,55,64,65,45,45,52,42,44,49
226091,LAMAR UNIVERSITY,0,2522,5476,3523820,1397.2323552735925,46.05551497443389,12.78450854159274,27.75890910934253,0.492,70.46808510638299,3445,1618,5063,1656,694,2350,Lamar University,4400 MLK Blvd,Beaumont,TX,77705,48,00358100,1,1,1,9,1,1,2,2,4,12,1,1,1,-94.072244,30.042738,1452,1447,1433,1192,1200,1452,1447,1433,1192,1200,933,922,940,820,684,64,64,66,69,57,1421,1433,1194,1203,1363,2327,2255,2441,2363,2192,72,84,102,99,264,72,84,102,99,264,38,43,52,56,129,53,51,51,57,49
226408,COLLEGE OF THE MAINLAND,1,944,944,652900,691.6313559322034,100,15.913688469318949,15.913688469318949,0.406,80.72033898305084,762,182,944,762,182,944,College of the Mainland,1200 Amburn Road,Texas City,TX,77591-2499,48,00709600,4,2,1,3,1,2,4,2,2,22,1,1,1,-94.999602,29.39581,194,316,356,252,0,194,315,356,252,0,126,200,235,161,0,65,63,66,64,NA,316,356,252,344,414,1463,1647,1592,1508,1605,261,259,310,375,0,261,259,310,375,0,143,128,155,196,0,55,49,50,52,NA
